{
"type": "FeatureCollection",
"name": "facilities_scored",
"crs": { "type": "name", "properties": { "name": "urn:ogc:def:crs:OGC:1.3:CRS84" } },
"features": [
{ "type": "Feature", "properties": { "facility_id": 2, "name": "Sibley Memorial Hospital (Acute Care)", "address": "5255 LOUGHBORO ROAD NW", "ward": "3", "facility_type": "Hospital", "distance_to_substation_miles": 7.04, "grid_exposure_score": 100.0, "hazard_exposure_score": 0, "flood_risk_label": "Minimal risk", "criticality_score": 100, "resilience_score": 70, "priority_tier": "High", "distance_to_solar_miles": 1.74, "nearby_solar_capacity_kw": 0.0, "der_opportunity": true, "lon": -77.109241212104379, "lat": 38.93622858606723 }, "geometry": { "type": "Point", "coordinates": [ -77.109241212104379, 38.93622858606723 ] } },
{ "type": "Feature", "properties": { "facility_id": 10, "name": "Psychiatric Institute of Washington (Behavioral Health)", "address": "4228 WISCONSIN AVENUE NW", "ward": "3", "facility_type": "Hospital", "distance_to_substation_miles": 5.89, "grid_exposure_score": 83.1, "hazard_exposure_score": 0, "flood_risk_label": "Minimal risk", "criticality_score": 100, "resilience_score": 65, "priority_tier": "High", "distance_to_solar_miles": 0.94, "nearby_solar_capacity_kw": 0.0, "der_opportunity": true, "lon": -77.077964745948094, "lat": 38.943910415360868 }, "geometry": { "type": "Point", "coordinates": [ -77.077964745948094, 38.943910415360868 ] } },
{ "type": "Feature", "properties": { "facility_id": 38, "name": "Fire Boat", "address": "550 WATER STREET SW", "ward": "6", "facility_type": "Fire/EMS Station", "distance_to_substation_miles": 0.62, "grid_exposure_score": 5.6, "hazard_exposure_score": 100, "flood_risk_label": "High risk (Special Flood Hazard Area)", "criticality_score": 70, "resilience_score": 60, "priority_tier": "High", "distance_to_solar_miles": 0.33, "nearby_solar_capacity_kw": 263.2, "der_opportunity": false, "lon": -77.020851459412668, "lat": 38.873882508712519 }, "geometry": { "type": "Point", "coordinates": [ -77.020851459412668, 38.873882508712519 ] } },
{ "type": "Feature", "properties": { "facility_id": 8, "name": "Medstar Georgetown University Hospital (Acute Care)", "address": "3800 RESERVOIR ROAD NW", "ward": "2", "facility_type": "Hospital", "distance_to_substation_miles": 4.56, "grid_exposure_score": 63.5, "hazard_exposure_score": 0, "flood_risk_label": "Minimal risk", "criticality_score": 100, "resilience_score": 59, "priority_tier": "Moderate", "distance_to_solar_miles": 0.84, "nearby_solar_capacity_kw": 0.0, "der_opportunity": false, "lon": -77.075283295883892, "lat": 38.912058043436076 }, "geometry": { "type": "Point", "coordinates": [ -77.075283295883892, 38.912058043436076 ] } },
{ "type": "Feature", "properties": { "facility_id": 23, "name": "Engine Company 20", "address": "4300 WISCONSIN AVENUE NW", "ward": "3", "facility_type": "Fire/EMS Station", "distance_to_substation_miles": 5.96, "grid_exposure_score": 84.1, "hazard_exposure_score": 0, "flood_risk_label": "Minimal risk", "criticality_score": 70, "resilience_score": 53, "priority_tier": "Moderate", "distance_to_solar_miles": 0.88, "nearby_solar_capacity_kw": 0.0, "der_opportunity": false, "lon": -77.078425144417352, "lat": 38.944981373132585 }, "geometry": { "type": "Point", "coordinates": [ -77.078425144417352, 38.944981373132585 ] } },
{ "type": "Feature", "properties": { "facility_id": 1, "name": "Hospital for Sick Children Pediatric Center (Specialty Services)", "address": "1731 BUNKER HILL ROAD NE", "ward": "5", "facility_type": "Hospital", "distance_to_substation_miles": 3.1, "grid_exposure_score": 42.1, "hazard_exposure_score": 0, "flood_risk_label": "Minimal risk", "criticality_score": 100, "resilience_score": 53, "priority_tier": "Moderate", "distance_to_solar_miles": 0.83, "nearby_solar_capacity_kw": 0.0, "der_opportunity": false, "lon": -76.981041113901, "lat": 38.941375894387072 }, "geometry": { "type": "Point", "coordinates": [ -76.981041113901, 38.941375894387072 ] } },
{ "type": "Feature", "properties": { "facility_id": 34, "name": "Engine Company 31", "address": "4930 CONNECTICUT AVENUE NW", "ward": "3", "facility_type": "Fire/EMS Station", "distance_to_substation_miles": 6.0, "grid_exposure_score": 84.7, "hazard_exposure_score": 0, "flood_risk_label": "Minimal risk", "criticality_score": 70, "resilience_score": 53, "priority_tier": "Moderate", "distance_to_solar_miles": 0.16, "nearby_solar_capacity_kw": 75.2, "der_opportunity": false, "lon": -77.069912517137482, "lat": 38.954248006282604 }, "geometry": { "type": "Point", "coordinates": [ -77.069912517137482, 38.954248006282604 ] } },
{ "type": "Feature", "properties": { "facility_id": 9, "name": "George Washington University Hospital (Acute Care)", "address": "900 23RD STREET NW", "ward": "2", "facility_type": "Hospital", "distance_to_substation_miles": 3.09, "grid_exposure_score": 41.9, "hazard_exposure_score": 0, "flood_risk_label": "Minimal risk", "criticality_score": 100, "resilience_score": 53, "priority_tier": "Moderate", "distance_to_solar_miles": 0.2, "nearby_solar_capacity_kw": 517.4, "der_opportunity": false, "lon": -77.050638969276264, "lat": 38.901326793181092 }, "geometry": { "type": "Point", "coordinates": [ -77.050638969276264, 38.901326793181092 ] } },
{ "type": "Feature", "properties": { "facility_id": 25, "name": "Engine Company 22", "address": "6825 GEORGIA AVENUE NW", "ward": "4", "facility_type": "Fire/EMS Station", "distance_to_substation_miles": 5.78, "grid_exposure_score": 81.5, "hazard_exposure_score": 0, "flood_risk_label": "Minimal risk", "criticality_score": 70, "resilience_score": 52, "priority_tier": "Moderate", "distance_to_solar_miles": 0.21, "nearby_solar_capacity_kw": 658.6, "der_opportunity": false, "lon": -77.026609544242788, "lat": 38.973427154838873 }, "geometry": { "type": "Point", "coordinates": [ -77.026609544242788, 38.973427154838873 ] } },
{ "type": "Feature", "properties": { "facility_id": 13, "name": "Veteran Affairs Medical Center Fisher House", "address": "50 IRVING STREET NW", "ward": "5", "facility_type": "Hospital", "distance_to_substation_miles": 2.71, "grid_exposure_score": 36.3, "hazard_exposure_score": 0, "flood_risk_label": "Minimal risk", "criticality_score": 100, "resilience_score": 51, "priority_tier": "Moderate", "distance_to_solar_miles": 0.17, "nearby_solar_capacity_kw": 1313.4, "der_opportunity": false, "lon": -77.01017865717219, "lat": 38.930516941355918 }, "geometry": { "type": "Point", "coordinates": [ -77.01017865717219, 38.930516941355918 ] } },
{ "type": "Feature", "properties": { "facility_id": 32, "name": "Engine Company 29", "address": "4811 MACARTHUR BOULEVARD NW", "ward": "3", "facility_type": "Fire/EMS Station", "distance_to_substation_miles": 5.48, "grid_exposure_score": 77.1, "hazard_exposure_score": 0, "flood_risk_label": "Minimal risk", "criticality_score": 70, "resilience_score": 51, "priority_tier": "Moderate", "distance_to_solar_miles": 0.83, "nearby_solar_capacity_kw": 0.0, "der_opportunity": false, "lon": -77.093525948897465, "lat": 38.915572802313342 }, "geometry": { "type": "Point", "coordinates": [ -77.093525948897465, 38.915572802313342 ] } },
{ "type": "Feature", "properties": { "facility_id": 0, "name": "Veterans Affairs Medical Center", "address": "50 IRVING STREET NW", "ward": "5", "facility_type": "Hospital", "distance_to_substation_miles": 2.64, "grid_exposure_score": 35.3, "hazard_exposure_score": 0, "flood_risk_label": "Minimal risk", "criticality_score": 100, "resilience_score": 51, "priority_tier": "Moderate", "distance_to_solar_miles": 0.15, "nearby_solar_capacity_kw": 1313.4, "der_opportunity": false, "lon": -77.010247205924387, "lat": 38.929284418270143 }, "geometry": { "type": "Point", "coordinates": [ -77.010247205924387, 38.929284418270143 ] } },
{ "type": "Feature", "properties": { "facility_id": 4, "name": "MedStar Washington Hospital Center (Acute Care)", "address": "110 IRVING STREET NW", "ward": "5", "facility_type": "Hospital", "distance_to_substation_miles": 2.8, "grid_exposure_score": 37.6, "hazard_exposure_score": 0, "flood_risk_label": "Minimal risk", "criticality_score": 100, "resilience_score": 51, "priority_tier": "Moderate", "distance_to_solar_miles": 0.17, "nearby_solar_capacity_kw": 501.9, "der_opportunity": false, "lon": -77.015650581261454, "lat": 38.929659736353614 }, "geometry": { "type": "Point", "coordinates": [ -77.015650581261454, 38.929659736353614 ] } },
{ "type": "Feature", "properties": { "facility_id": 7, "name": "Children's National Medical Center (Acute Care)", "address": "111 MICHIGAN AVENUE NW", "ward": "5", "facility_type": "Hospital", "distance_to_substation_miles": 2.63, "grid_exposure_score": 35.1, "hazard_exposure_score": 0, "flood_risk_label": "Minimal risk", "criticality_score": 100, "resilience_score": 51, "priority_tier": "Moderate", "distance_to_solar_miles": 0.27, "nearby_solar_capacity_kw": 1313.4, "der_opportunity": false, "lon": -77.01439600210476, "lat": 38.927273865683659 }, "geometry": { "type": "Point", "coordinates": [ -77.01439600210476, 38.927273865683659 ] } },
{ "type": "Feature", "properties": { "facility_id": 6, "name": "MedStar National Rehabilitation Hospital (Rehab Services)", "address": "102 IRVING STREET NW", "ward": "5", "facility_type": "Hospital", "distance_to_substation_miles": 2.79, "grid_exposure_score": 37.5, "hazard_exposure_score": 0, "flood_risk_label": "Minimal risk", "criticality_score": 100, "resilience_score": 51, "priority_tier": "Moderate", "distance_to_solar_miles": 0.31, "nearby_solar_capacity_kw": 1313.4, "der_opportunity": false, "lon": -77.013345764481514, "lat": 38.930550313642094 }, "geometry": { "type": "Point", "coordinates": [ -77.013345764481514, 38.930550313642094 ] } },
{ "type": "Feature", "properties": { "facility_id": 5, "name": "Howard University Hospital (Acute Care)", "address": "2041 GEORGIA AVENUE NW", "ward": "1", "facility_type": "Hospital", "distance_to_substation_miles": 2.31, "grid_exposure_score": 30.4, "hazard_exposure_score": 0, "flood_risk_label": "Minimal risk", "criticality_score": 100, "resilience_score": 49, "priority_tier": "Moderate", "distance_to_solar_miles": 0.19, "nearby_solar_capacity_kw": 21.2, "der_opportunity": false, "lon": -77.020096032396239, "lat": 38.917556196145974 }, "geometry": { "type": "Point", "coordinates": [ -77.020096032396239, 38.917556196145974 ] } },
{ "type": "Feature", "properties": { "facility_id": 31, "name": "Engine Company 28", "address": "3522 CONNECTICUT AVENUE NW", "ward": "3", "facility_type": "Fire/EMS Station", "distance_to_substation_miles": 4.78, "grid_exposure_score": 66.8, "hazard_exposure_score": 0, "flood_risk_label": "Minimal risk", "criticality_score": 70, "resilience_score": 48, "priority_tier": "Moderate", "distance_to_solar_miles": 1.22, "nearby_solar_capacity_kw": 0.0, "der_opportunity": false, "lon": -77.059405880195328, "lat": 38.936352550717316 }, "geometry": { "type": "Point", "coordinates": [ -77.059405880195328, 38.936352550717316 ] } },
{ "type": "Feature", "properties": { "facility_id": 27, "name": "Engine Company 24", "address": "5101 GEORGIA AVENUE NW", "ward": "4", "facility_type": "Fire/EMS Station", "distance_to_substation_miles": 4.46, "grid_exposure_score": 62.1, "hazard_exposure_score": 0, "flood_risk_label": "Minimal risk", "criticality_score": 70, "resilience_score": 47, "priority_tier": "Moderate", "distance_to_solar_miles": 0.25, "nearby_solar_capacity_kw": 222.0, "der_opportunity": false, "lon": -77.027163883315154, "lat": 38.952116291091066 }, "geometry": { "type": "Point", "coordinates": [ -77.027163883315154, 38.952116291091066 ] } },
{ "type": "Feature", "properties": { "facility_id": 50, "name": "Engine Company 05", "address": "3412 DENT PLACE NW", "ward": "2", "facility_type": "Fire/EMS Station", "distance_to_substation_miles": 4.26, "grid_exposure_score": 59.1, "hazard_exposure_score": 0, "flood_risk_label": "Minimal risk", "criticality_score": 70, "resilience_score": 46, "priority_tier": "Moderate", "distance_to_solar_miles": 1.08, "nearby_solar_capacity_kw": 0.0, "der_opportunity": false, "lon": -77.068438182004328, "lat": 38.91144572236395 }, "geometry": { "type": "Point", "coordinates": [ -77.068438182004328, 38.91144572236395 ] } },
{ "type": "Feature", "properties": { "facility_id": 11, "name": "Saint Elizabeths Hospital (Behavioral Health)", "address": "1100 ALABAMA AVENUE SE", "ward": "8", "facility_type": "Hospital", "distance_to_substation_miles": 1.64, "grid_exposure_score": 20.6, "hazard_exposure_score": 0, "flood_risk_label": "Minimal risk", "criticality_score": 100, "resilience_score": 46, "priority_tier": "Moderate", "distance_to_solar_miles": 0.17, "nearby_solar_capacity_kw": 1135.1, "der_opportunity": false, "lon": -76.988659254601174, "lat": 38.848575697952185 }, "geometry": { "type": "Point", "coordinates": [ -76.988659254601174, 38.848575697952185 ] } },
{ "type": "Feature", "properties": { "facility_id": 14, "name": "Cedar Hill Regional Medical Center", "address": "1200 PECAN STREET SE", "ward": "8", "facility_type": "Hospital", "distance_to_substation_miles": 1.31, "grid_exposure_score": 15.7, "hazard_exposure_score": 0, "flood_risk_label": "Minimal risk", "criticality_score": 100, "resilience_score": 45, "priority_tier": "Moderate", "distance_to_solar_miles": 0.31, "nearby_solar_capacity_kw": 913.1, "der_opportunity": false, "lon": -76.994322909617708, "lat": 38.850838534824767 }, "geometry": { "type": "Point", "coordinates": [ -76.994322909617708, 38.850838534824767 ] } },
{ "type": "Feature", "properties": { "facility_id": 16, "name": "Engine Company 14", "address": "4801 NORTH CAPITOL STREET NE", "ward": "5", "facility_type": "Fire/EMS Station", "distance_to_substation_miles": 3.86, "grid_exposure_score": 53.2, "hazard_exposure_score": 0, "flood_risk_label": "Minimal risk", "criticality_score": 70, "resilience_score": 44, "priority_tier": "Moderate", "distance_to_solar_miles": 0.44, "nearby_solar_capacity_kw": 432.4, "der_opportunity": false, "lon": -77.008295934209187, "lat": 38.948874101790075 }, "geometry": { "type": "Point", "coordinates": [ -77.008295934209187, 38.948874101790075 ] } },
{ "type": "Feature", "properties": { "facility_id": 24, "name": "Engine Company 21", "address": "1763 LANIER PLACE NW", "ward": "1", "facility_type": "Fire/EMS Station", "distance_to_substation_miles": 3.56, "grid_exposure_score": 48.8, "hazard_exposure_score": 0, "flood_risk_label": "Minimal risk", "criticality_score": 70, "resilience_score": 43, "priority_tier": "Moderate", "distance_to_solar_miles": 0.4, "nearby_solar_capacity_kw": 146.7, "der_opportunity": false, "lon": -77.042217753559143, "lat": 38.924778938875754 }, "geometry": { "type": "Point", "coordinates": [ -77.042217753559143, 38.924778938875754 ] } },
{ "type": "Feature", "properties": { "facility_id": 37, "name": "Fire and Police Clinic", "address": "920 VARNUM STREET NE", "ward": "5", "facility_type": "Fire/EMS Station", "distance_to_substation_miles": 3.32, "grid_exposure_score": 45.3, "hazard_exposure_score": 0, "flood_risk_label": "Minimal risk", "criticality_score": 70, "resilience_score": 42, "priority_tier": "Moderate", "distance_to_solar_miles": 0.31, "nearby_solar_capacity_kw": 631.0, "der_opportunity": false, "lon": -76.992924528660154, "lat": 38.943212476360216 }, "geometry": { "type": "Point", "coordinates": [ -76.992924528660154, 38.943212476360216 ] } },
{ "type": "Feature", "properties": { "facility_id": 20, "name": "Engine Company 11", "address": "3420 14TH STREET NW", "ward": "1", "facility_type": "Fire/EMS Station", "distance_to_substation_miles": 3.52, "grid_exposure_score": 48.2, "hazard_exposure_score": 0, "flood_risk_label": "Minimal risk", "criticality_score": 70, "resilience_score": 42, "priority_tier": "Moderate", "distance_to_solar_miles": 0.24, "nearby_solar_capacity_kw": 352.9, "der_opportunity": false, "lon": -77.033064882202169, "lat": 38.932254283361601 }, "geometry": { "type": "Point", "coordinates": [ -77.033064882202169, 38.932254283361601 ] } },
{ "type": "Feature", "properties": { "facility_id": 59, "name": "Saint Josephine Bakhita Women’s Shelter", "address": "6010 Georgia Ave., NW", "ward": "Ward 4", "facility_type": "Homeless Shelter", "distance_to_substation_miles": 5.18, "grid_exposure_score": 72.6, "hazard_exposure_score": 0, "flood_risk_label": "Minimal risk", "criticality_score": 50, "resilience_score": 42, "priority_tier": "Moderate", "distance_to_solar_miles": 0.24, "nearby_solar_capacity_kw": 476.3, "der_opportunity": false, "lon": -77.028304820744509, "lat": 38.963358873102905 }, "geometry": { "type": "Point", "coordinates": [ -77.028304820744509, 38.963358873102905 ] } },
{ "type": "Feature", "properties": { "facility_id": 46, "name": "Engine Company 01", "address": "2225 M STREET NW", "ward": "2", "facility_type": "Fire/EMS Station", "distance_to_substation_miles": 3.28, "grid_exposure_score": 44.7, "hazard_exposure_score": 0, "flood_risk_label": "Minimal risk", "criticality_score": 70, "resilience_score": 41, "priority_tier": "Moderate", "distance_to_solar_miles": 0.45, "nearby_solar_capacity_kw": 302.4, "der_opportunity": false, "lon": -77.049697819982711, "lat": 38.905490228962613 }, "geometry": { "type": "Point", "coordinates": [ -77.049697819982711, 38.905490228962613 ] } },
{ "type": "Feature", "properties": { "facility_id": 3, "name": "Bridgepoint Continuing Care Hospital - National Harborside (Long Term Acute Care)", "address": "4601 MARTIN LUTHER KING JR AVENUE SW", "ward": "8", "facility_type": "Hospital", "distance_to_substation_miles": 0.43, "grid_exposure_score": 2.8, "hazard_exposure_score": 0, "flood_risk_label": "Minimal risk", "criticality_score": 100, "resilience_score": 41, "priority_tier": "Moderate", "distance_to_solar_miles": 0.34, "nearby_solar_capacity_kw": 422.1, "der_opportunity": false, "lon": -77.013227776779985, "lat": 38.824858709179217 }, "geometry": { "type": "Point", "coordinates": [ -77.013227776779985, 38.824858709179217 ] } },
{ "type": "Feature", "properties": { "facility_id": 12, "name": "BridgePoint Hospital Capitol Hill (Long-Term Acute Care)", "address": "223 7TH STREET NE", "ward": "6", "facility_type": "Hospital", "distance_to_substation_miles": 0.44, "grid_exposure_score": 2.9, "hazard_exposure_score": 0, "flood_risk_label": "Minimal risk", "criticality_score": 100, "resilience_score": 41, "priority_tier": "Moderate", "distance_to_solar_miles": 0.39, "nearby_solar_capacity_kw": 230.0, "der_opportunity": false, "lon": -76.995828905191246, "lat": 38.893075042217625 }, "geometry": { "type": "Point", "coordinates": [ -76.995828905191246, 38.893075042217625 ] } },
{ "type": "Feature", "properties": { "facility_id": 26, "name": "Engine Company 23", "address": "2119 G STREET NW", "ward": "2", "facility_type": "Fire/EMS Station", "distance_to_substation_miles": 2.85, "grid_exposure_score": 38.4, "hazard_exposure_score": 0, "flood_risk_label": "Minimal risk", "criticality_score": 70, "resilience_score": 40, "priority_tier": "Moderate", "distance_to_solar_miles": 0.02, "nearby_solar_capacity_kw": 602.4, "der_opportunity": false, "lon": -77.047627085490774, "lat": 38.898590328760037 }, "geometry": { "type": "Point", "coordinates": [ -77.047627085490774, 38.898590328760037 ] } },
{ "type": "Feature", "properties": { "facility_id": 54, "name": "Engine Company 09", "address": "1617 U STREET NW", "ward": "1", "facility_type": "Fire/EMS Station", "distance_to_substation_miles": 3.07, "grid_exposure_score": 41.6, "hazard_exposure_score": 0, "flood_risk_label": "Minimal risk", "criticality_score": 70, "resilience_score": 40, "priority_tier": "Moderate", "distance_to_solar_miles": 0.23, "nearby_solar_capacity_kw": 68.8, "der_opportunity": false, "lon": -77.037527824659335, "lat": 38.917304258696987 }, "geometry": { "type": "Point", "coordinates": [ -77.037527824659335, 38.917304258696987 ] } },
{ "type": "Feature", "properties": { "facility_id": 49, "name": "Engine Company 04", "address": "2531 SHERMAN AVENUE NW", "ward": "1", "facility_type": "Fire/EMS Station", "distance_to_substation_miles": 2.78, "grid_exposure_score": 37.4, "hazard_exposure_score": 0, "flood_risk_label": "Minimal risk", "criticality_score": 70, "resilience_score": 39, "priority_tier": "Low", "distance_to_solar_miles": 0.46, "nearby_solar_capacity_kw": 81.7, "der_opportunity": false, "lon": -77.025027486363697, "lat": 38.92340435062976 }, "geometry": { "type": "Point", "coordinates": [ -77.025027486363697, 38.92340435062976 ] } },
{ "type": "Feature", "properties": { "facility_id": 19, "name": "Engine Company 17", "address": "1227 MONROE STREET NE", "ward": "5", "facility_type": "Fire/EMS Station", "distance_to_substation_miles": 2.56, "grid_exposure_score": 34.1, "hazard_exposure_score": 0, "flood_risk_label": "Minimal risk", "criticality_score": 70, "resilience_score": 38, "priority_tier": "Low", "distance_to_solar_miles": 0.6, "nearby_solar_capacity_kw": 0.0, "der_opportunity": false, "lon": -76.989930493219205, "lat": 38.932334017035068 }, "geometry": { "type": "Point", "coordinates": [ -76.989930493219205, 38.932334017035068 ] } },
{ "type": "Feature", "properties": { "facility_id": 41, "name": "Homeland Security Special Operations", "address": "1018 13TH STREET NW", "ward": "2", "facility_type": "Fire/EMS Station", "distance_to_substation_miles": 2.33, "grid_exposure_score": 30.7, "hazard_exposure_score": 0, "flood_risk_label": "Minimal risk", "criticality_score": 70, "resilience_score": 37, "priority_tier": "Low", "distance_to_solar_miles": 0.17, "nearby_solar_capacity_kw": 177.1, "der_opportunity": false, "lon": -77.030017913126173, "lat": 38.903318452998505 }, "geometry": { "type": "Point", "coordinates": [ -77.030017913126173, 38.903318452998505 ] } },
{ "type": "Feature", "properties": { "facility_id": 60, "name": "The Webster House", "address": "4326 14th Street NW", "ward": "Ward 4", "facility_type": "Homeless Shelter", "distance_to_substation_miles": 4.14, "grid_exposure_score": 57.4, "hazard_exposure_score": 0, "flood_risk_label": "Minimal risk", "criticality_score": 50, "resilience_score": 37, "priority_tier": "Low", "distance_to_solar_miles": 0.4, "nearby_solar_capacity_kw": 18.0, "der_opportunity": false, "lon": -77.033003473544923, "lat": 38.943854645715803 }, "geometry": { "type": "Point", "coordinates": [ -77.033003473544923, 38.943854645715803 ] } },
{ "type": "Feature", "properties": { "facility_id": 18, "name": "Engine Company 16", "address": "1018 13TH STREET NW", "ward": "2", "facility_type": "Fire/EMS Station", "distance_to_substation_miles": 2.33, "grid_exposure_score": 30.7, "hazard_exposure_score": 0, "flood_risk_label": "Minimal risk", "criticality_score": 70, "resilience_score": 37, "priority_tier": "Low", "distance_to_solar_miles": 0.17, "nearby_solar_capacity_kw": 177.1, "der_opportunity": false, "lon": -77.030017913126173, "lat": 38.903318452998505 }, "geometry": { "type": "Point", "coordinates": [ -77.030017913126173, 38.903318452998505 ] } },
{ "type": "Feature", "properties": { "facility_id": 35, "name": "Engine Company 32", "address": "2425 IRVING STREET SE", "ward": "8", "facility_type": "Fire/EMS Station", "distance_to_substation_miles": 2.29, "grid_exposure_score": 30.1, "hazard_exposure_score": 0, "flood_risk_label": "Minimal risk", "criticality_score": 70, "resilience_score": 37, "priority_tier": "Low", "distance_to_solar_miles": 0.14, "nearby_solar_capacity_kw": 3107.5, "der_opportunity": false, "lon": -76.971368189006341, "lat": 38.852647749489094 }, "geometry": { "type": "Point", "coordinates": [ -76.971368189006341, 38.852647749489094 ] } },
{ "type": "Feature", "properties": { "facility_id": 29, "name": "Engine Company 26", "address": "1340 RHODE ISLAND AVENUE NE", "ward": "5", "facility_type": "Fire/EMS Station", "distance_to_substation_miles": 2.04, "grid_exposure_score": 26.5, "hazard_exposure_score": 0, "flood_risk_label": "Minimal risk", "criticality_score": 70, "resilience_score": 36, "priority_tier": "Low", "distance_to_solar_miles": 0.49, "nearby_solar_capacity_kw": 171.0, "der_opportunity": false, "lon": -76.986770465328533, "lat": 38.924794374576571 }, "geometry": { "type": "Point", "coordinates": [ -76.986770465328533, 38.924794374576571 ] } },
{ "type": "Feature", "properties": { "facility_id": 57, "name": "Engine Company 12", "address": "2225 5TH STREET NE", "ward": "5", "facility_type": "Fire/EMS Station", "distance_to_substation_miles": 1.81, "grid_exposure_score": 23.1, "hazard_exposure_score": 0, "flood_risk_label": "Minimal risk", "criticality_score": 70, "resilience_score": 35, "priority_tier": "Low", "distance_to_solar_miles": 0.2, "nearby_solar_capacity_kw": 2256.5, "der_opportunity": false, "lon": -76.999186783048884, "lat": 38.91992134706188 }, "geometry": { "type": "Point", "coordinates": [ -76.999186783048884, 38.91992134706188 ] } },
{ "type": "Feature", "properties": { "facility_id": 22, "name": "Engine Company 19", "address": "2813 PENNSYLVANIA AVENUE SE", "ward": "7", "facility_type": "Fire/EMS Station", "distance_to_substation_miles": 1.82, "grid_exposure_score": 23.2, "hazard_exposure_score": 0, "flood_risk_label": "Minimal risk", "criticality_score": 70, "resilience_score": 35, "priority_tier": "Low", "distance_to_solar_miles": 0.13, "nearby_solar_capacity_kw": 89.0, "der_opportunity": false, "lon": -76.966989564181787, "lat": 38.871603822519639 }, "geometry": { "type": "Point", "coordinates": [ -76.966989564181787, 38.871603822519639 ] } },
{ "type": "Feature", "properties": { "facility_id": 51, "name": "Engine Company 06", "address": "1300 NEW JERSEY AVENUE NW", "ward": "2", "facility_type": "Fire/EMS Station", "distance_to_substation_miles": 1.74, "grid_exposure_score": 22.1, "hazard_exposure_score": 0, "flood_risk_label": "Minimal risk", "criticality_score": 70, "resilience_score": 35, "priority_tier": "Low", "distance_to_solar_miles": 0.05, "nearby_solar_capacity_kw": 345.9, "der_opportunity": false, "lon": -77.016079856765828, "lat": 38.907698361031493 }, "geometry": { "type": "Point", "coordinates": [ -77.016079856765828, 38.907698361031493 ] } },
{ "type": "Feature", "properties": { "facility_id": 61, "name": "La Casa TRP", "address": "1131 Spring Road NW", "ward": "Ward 4", "facility_type": "Homeless Shelter", "distance_to_substation_miles": 3.6, "grid_exposure_score": 49.4, "hazard_exposure_score": 0, "flood_risk_label": "Minimal risk", "criticality_score": 50, "resilience_score": 35, "priority_tier": "Low", "distance_to_solar_miles": 0.17, "nearby_solar_capacity_kw": 206.2, "der_opportunity": false, "lon": -77.029160664624754, "lat": 38.9363796845292 }, "geometry": { "type": "Point", "coordinates": [ -77.029160664624754, 38.9363796845292 ] } },
{ "type": "Feature", "properties": { "facility_id": 58, "name": "Ready/Reserve", "address": "2215 ADAMS PLACE NE", "ward": "5", "facility_type": "Fire/EMS Station", "distance_to_substation_miles": 1.59, "grid_exposure_score": 19.9, "hazard_exposure_score": 0, "flood_risk_label": "Minimal risk", "criticality_score": 70, "resilience_score": 34, "priority_tier": "Low", "distance_to_solar_miles": 0.12, "nearby_solar_capacity_kw": 1035.8, "der_opportunity": false, "lon": -76.974432382553985, "lat": 38.918983294204452 }, "geometry": { "type": "Point", "coordinates": [ -76.974432382553985, 38.918983294204452 ] } },
{ "type": "Feature", "properties": { "facility_id": 28, "name": "Engine Company 25", "address": "3203 MARTIN LUTHER KING JR AVENUE SE", "ward": "8", "facility_type": "Fire/EMS Station", "distance_to_substation_miles": 1.59, "grid_exposure_score": 19.9, "hazard_exposure_score": 0, "flood_risk_label": "Minimal risk", "criticality_score": 70, "resilience_score": 34, "priority_tier": "Low", "distance_to_solar_miles": 0.11, "nearby_solar_capacity_kw": 382.5, "der_opportunity": false, "lon": -77.000782347935797, "lat": 38.843164108182677 }, "geometry": { "type": "Point", "coordinates": [ -77.000782347935797, 38.843164108182677 ] } },
{ "type": "Feature", "properties": { "facility_id": 62, "name": "Park Road Transitional Program", "address": "1318 Park Road NW", "ward": "Ward 1", "facility_type": "Homeless Shelter", "distance_to_substation_miles": 3.36, "grid_exposure_score": 45.9, "hazard_exposure_score": 0, "flood_risk_label": "Minimal risk", "criticality_score": 50, "resilience_score": 34, "priority_tier": "Low", "distance_to_solar_miles": 0.37, "nearby_solar_capacity_kw": 334.9, "der_opportunity": false, "lon": -77.030501079223214, "lat": 38.930810228066967 }, "geometry": { "type": "Point", "coordinates": [ -77.030501079223214, 38.930810228066967 ] } },
{ "type": "Feature", "properties": { "facility_id": 47, "name": "Engine Company 02", "address": "500 F STREET NW", "ward": "2", "facility_type": "Fire/EMS Station", "distance_to_substation_miles": 1.7, "grid_exposure_score": 21.5, "hazard_exposure_score": 0, "flood_risk_label": "Minimal risk", "criticality_score": 70, "resilience_score": 34, "priority_tier": "Low", "distance_to_solar_miles": 0.18, "nearby_solar_capacity_kw": 219.1, "der_opportunity": false, "lon": -77.019488978027184, "lat": 38.897081854103988 }, "geometry": { "type": "Point", "coordinates": [ -77.019488978027184, 38.897081854103988 ] } },
{ "type": "Feature", "properties": { "facility_id": 77, "name": "The Aston", "address": "1129 NEW HAMPSHIRE AVENUE NW", "ward": "Ward 2", "facility_type": "Homeless Shelter", "distance_to_substation_miles": 3.17, "grid_exposure_score": 43.1, "hazard_exposure_score": 0, "flood_risk_label": "Minimal risk", "criticality_score": 50, "resilience_score": 33, "priority_tier": "Low", "distance_to_solar_miles": 0.36, "nearby_solar_capacity_kw": 602.4, "der_opportunity": false, "lon": -77.047887982518105, "lat": 38.904457186191536 }, "geometry": { "type": "Point", "coordinates": [ -77.047887982518105, 38.904457186191536 ] } },
{ "type": "Feature", "properties": { "facility_id": 43, "name": "Property Management", "address": "3170 V STREET NE", "ward": "5", "facility_type": "Fire/EMS Station", "distance_to_substation_miles": 1.3, "grid_exposure_score": 15.6, "hazard_exposure_score": 0, "flood_risk_label": "Minimal risk", "criticality_score": 70, "resilience_score": 33, "priority_tier": "Low", "distance_to_solar_miles": 0.27, "nearby_solar_capacity_kw": 156.0, "der_opportunity": false, "lon": -76.962066222942198, "lat": 38.919072914800978 }, "geometry": { "type": "Point", "coordinates": [ -76.962066222942198, 38.919072914800978 ] } },
{ "type": "Feature", "properties": { "facility_id": 17, "name": "Engine Company 15", "address": "2101 14TH STREET SE", "ward": "8", "facility_type": "Fire/EMS Station", "distance_to_substation_miles": 1.33, "grid_exposure_score": 16.0, "hazard_exposure_score": 0, "flood_risk_label": "Minimal risk", "criticality_score": 70, "resilience_score": 33, "priority_tier": "Low", "distance_to_solar_miles": 0.25, "nearby_solar_capacity_kw": 955.7, "der_opportunity": false, "lon": -76.986075125140687, "lat": 38.864873240395568 }, "geometry": { "type": "Point", "coordinates": [ -76.986075125140687, 38.864873240395568 ] } },
{ "type": "Feature", "properties": { "facility_id": 45, "name": "DC FEMS Human Resources", "address": "899 NORTH CAPITOL STREET NE", "ward": "6", "facility_type": "Fire/EMS Station", "distance_to_substation_miles": 1.17, "grid_exposure_score": 13.7, "hazard_exposure_score": 0, "flood_risk_label": "Minimal risk", "criticality_score": 70, "resilience_score": 32, "priority_tier": "Low", "distance_to_solar_miles": 0.13, "nearby_solar_capacity_kw": 68.3, "der_opportunity": false, "lon": -77.00843735394831, "lat": 38.90101901865976 }, "geometry": { "type": "Point", "coordinates": [ -77.00843735394831, 38.90101901865976 ] } },
{ "type": "Feature", "properties": { "facility_id": 40, "name": "Fire and EMS Headquarters", "address": "899 NORTH CAPITOL STREET NE", "ward": "6", "facility_type": "Fire/EMS Station", "distance_to_substation_miles": 1.17, "grid_exposure_score": 13.7, "hazard_exposure_score": 0, "flood_risk_label": "Minimal risk", "criticality_score": 70, "resilience_score": 32, "priority_tier": "Low", "distance_to_solar_miles": 0.13, "nearby_solar_capacity_kw": 68.3, "der_opportunity": false, "lon": -77.00843735394831, "lat": 38.90101901865976 }, "geometry": { "type": "Point", "coordinates": [ -77.00843735394831, 38.90101901865976 ] } },
{ "type": "Feature", "properties": { "facility_id": 63, "name": "Casa Ruby", "address": "2822 Georgia Ave NW", "ward": "Ward 1", "facility_type": "Homeless Shelter", "distance_to_substation_miles": 2.88, "grid_exposure_score": 38.8, "hazard_exposure_score": 0, "flood_risk_label": "Minimal risk", "criticality_score": 50, "resilience_score": 32, "priority_tier": "Low", "distance_to_solar_miles": 0.29, "nearby_solar_capacity_kw": 41.0, "der_opportunity": false, "lon": -77.023159474895294, "lat": 38.926765559532782 }, "geometry": { "type": "Point", "coordinates": [ -77.023159474895294, 38.926765559532782 ] } },
{ "type": "Feature", "properties": { "facility_id": 48, "name": "Engine Company 03", "address": "439 NEW JERSEY AVENUE NW", "ward": "6", "facility_type": "Fire/EMS Station", "distance_to_substation_miles": 1.23, "grid_exposure_score": 14.6, "hazard_exposure_score": 0, "flood_risk_label": "Minimal risk", "criticality_score": 70, "resilience_score": 32, "priority_tier": "Low", "distance_to_solar_miles": 0.49, "nearby_solar_capacity_kw": 68.3, "der_opportunity": false, "lon": -77.010902709328931, "lat": 38.895842248903669 }, "geometry": { "type": "Point", "coordinates": [ -77.010902709328931, 38.895842248903669 ] } },
{ "type": "Feature", "properties": { "facility_id": 33, "name": "Engine Company 30", "address": "50 49TH STREET NE", "ward": "7", "facility_type": "Fire/EMS Station", "distance_to_substation_miles": 1.11, "grid_exposure_score": 12.8, "hazard_exposure_score": 0, "flood_risk_label": "Minimal risk", "criticality_score": 70, "resilience_score": 32, "priority_tier": "Low", "distance_to_solar_miles": 0.32, "nearby_solar_capacity_kw": 1639.8, "der_opportunity": false, "lon": -76.933398624972455, "lat": 38.890702873197064 }, "geometry": { "type": "Point", "coordinates": [ -76.933398624972455, 38.890702873197064 ] } },
{ "type": "Feature", "properties": { "facility_id": 15, "name": "Engine Company 13", "address": "501 4TH STREET SW", "ward": "6", "facility_type": "Fire/EMS Station", "distance_to_substation_miles": 1.06, "grid_exposure_score": 12.1, "hazard_exposure_score": 0, "flood_risk_label": "Minimal risk", "criticality_score": 70, "resilience_score": 32, "priority_tier": "Low", "distance_to_solar_miles": 0.14, "nearby_solar_capacity_kw": 164.2, "der_opportunity": false, "lon": -77.017804826868812, "lat": 38.882810456519373 }, "geometry": { "type": "Point", "coordinates": [ -77.017804826868812, 38.882810456519373 ] } },
{ "type": "Feature", "properties": { "facility_id": 39, "name": "Fire Prevention", "address": "899 NORTH CAPITOL STREET NE", "ward": "6", "facility_type": "Fire/EMS Station", "distance_to_substation_miles": 1.17, "grid_exposure_score": 13.7, "hazard_exposure_score": 0, "flood_risk_label": "Minimal risk", "criticality_score": 70, "resilience_score": 32, "priority_tier": "Low", "distance_to_solar_miles": 0.13, "nearby_solar_capacity_kw": 68.3, "der_opportunity": false, "lon": -77.00843735394831, "lat": 38.90101901865976 }, "geometry": { "type": "Point", "coordinates": [ -77.00843735394831, 38.90101901865976 ] } },
{ "type": "Feature", "properties": { "facility_id": 36, "name": "Engine Company 33", "address": "101 ATLANTIC STREET SE", "ward": "8", "facility_type": "Fire/EMS Station", "distance_to_substation_miles": 0.96, "grid_exposure_score": 10.6, "hazard_exposure_score": 0, "flood_risk_label": "Minimal risk", "criticality_score": 70, "resilience_score": 31, "priority_tier": "Low", "distance_to_solar_miles": 0.12, "nearby_solar_capacity_kw": 2633.0, "der_opportunity": false, "lon": -77.005149704935235, "lat": 38.830902767241575 }, "geometry": { "type": "Point", "coordinates": [ -77.005149704935235, 38.830902767241575 ] } },
{ "type": "Feature", "properties": { "facility_id": 21, "name": "Engine Company 18", "address": "414 8TH STREET SE", "ward": "6", "facility_type": "Fire/EMS Station", "distance_to_substation_miles": 0.89, "grid_exposure_score": 9.6, "hazard_exposure_score": 0, "flood_risk_label": "Minimal risk", "criticality_score": 70, "resilience_score": 31, "priority_tier": "Low", "distance_to_solar_miles": 0.25, "nearby_solar_capacity_kw": 422.6, "der_opportunity": false, "lon": -76.994639125489272, "lat": 38.883267030767797 }, "geometry": { "type": "Point", "coordinates": [ -76.994639125489272, 38.883267030767797 ] } },
{ "type": "Feature", "properties": { "facility_id": 42, "name": "Patricia R. Harris", "address": "4600 LIVINGSTON ROAD SE", "ward": "8", "facility_type": "Fire/EMS Station", "distance_to_substation_miles": 0.98, "grid_exposure_score": 10.9, "hazard_exposure_score": 0, "flood_risk_label": "Minimal risk", "criticality_score": 70, "resilience_score": 31, "priority_tier": "Low", "distance_to_solar_miles": 0.13, "nearby_solar_capacity_kw": 2363.2, "der_opportunity": false, "lon": -77.003089119084578, "lat": 38.823911366299278 }, "geometry": { "type": "Point", "coordinates": [ -77.003089119084578, 38.823911366299278 ] } },
{ "type": "Feature", "properties": { "facility_id": 56, "name": "Apparatus", "address": "1103 HALF STREET SW", "ward": "6", "facility_type": "Fire/EMS Station", "distance_to_substation_miles": 0.6, "grid_exposure_score": 5.3, "hazard_exposure_score": 0, "flood_risk_label": "Minimal risk", "criticality_score": 70, "resilience_score": 30, "priority_tier": "Low", "distance_to_solar_miles": 0.35, "nearby_solar_capacity_kw": 339.8, "der_opportunity": false, "lon": -77.01091454655662, "lat": 38.87677339454774 }, "geometry": { "type": "Point", "coordinates": [ -77.01091454655662, 38.87677339454774 ] } },
{ "type": "Feature", "properties": { "facility_id": 53, "name": "Engine Company 08", "address": "1520 C STREET SE", "ward": "7", "facility_type": "Fire/EMS Station", "distance_to_substation_miles": 0.71, "grid_exposure_score": 6.9, "hazard_exposure_score": 0, "flood_risk_label": "Minimal risk", "criticality_score": 70, "resilience_score": 30, "priority_tier": "Low", "distance_to_solar_miles": 0.36, "nearby_solar_capacity_kw": 113.5, "der_opportunity": false, "lon": -76.982945853834337, "lat": 38.885547642819489 }, "geometry": { "type": "Point", "coordinates": [ -76.982945853834337, 38.885547642819489 ] } },
{ "type": "Feature", "properties": { "facility_id": 30, "name": "Engine Company 27", "address": "4409 MINNESOTA AVENUE NE", "ward": "7", "facility_type": "Fire/EMS Station", "distance_to_substation_miles": 0.66, "grid_exposure_score": 6.2, "hazard_exposure_score": 0, "flood_risk_label": "Minimal risk", "criticality_score": 70, "resilience_score": 30, "priority_tier": "Low", "distance_to_solar_miles": 0.0, "nearby_solar_capacity_kw": 254.9, "der_opportunity": false, "lon": -76.940989373240683, "lat": 38.90329614734199 }, "geometry": { "type": "Point", "coordinates": [ -76.940989373240683, 38.90329614734199 ] } },
{ "type": "Feature", "properties": { "facility_id": 52, "name": "Engine Company 07", "address": "1101 HALF STREET SW", "ward": "6", "facility_type": "Fire/EMS Station", "distance_to_substation_miles": 0.61, "grid_exposure_score": 5.4, "hazard_exposure_score": 0, "flood_risk_label": "Minimal risk", "criticality_score": 70, "resilience_score": 30, "priority_tier": "Low", "distance_to_solar_miles": 0.34, "nearby_solar_capacity_kw": 339.8, "der_opportunity": false, "lon": -77.011232070623436, "lat": 38.876936416420392 }, "geometry": { "type": "Point", "coordinates": [ -77.011232070623436, 38.876936416420392 ] } },
{ "type": "Feature", "properties": { "facility_id": 76, "name": "Covenant House Washington", "address": "2001 Mississippi Ave SE", "ward": "Ward 8", "facility_type": "Homeless Shelter", "distance_to_substation_miles": 2.46, "grid_exposure_score": 32.6, "hazard_exposure_score": 0, "flood_risk_label": "Minimal risk", "criticality_score": 50, "resilience_score": 30, "priority_tier": "Low", "distance_to_solar_miles": 0.27, "nearby_solar_capacity_kw": 1176.8, "der_opportunity": false, "lon": -76.974234424702516, "lat": 38.843603582453305 }, "geometry": { "type": "Point", "coordinates": [ -76.974234424702516, 38.843603582453305 ] } },
{ "type": "Feature", "properties": { "facility_id": 55, "name": "Engine Company 10", "address": "1342 FLORIDA AVENUE NE", "ward": "5", "facility_type": "Fire/EMS Station", "distance_to_substation_miles": 0.45, "grid_exposure_score": 3.1, "hazard_exposure_score": 0, "flood_risk_label": "Minimal risk", "criticality_score": 70, "resilience_score": 29, "priority_tier": "Low", "distance_to_solar_miles": 0.05, "nearby_solar_capacity_kw": 336.2, "der_opportunity": false, "lon": -76.986696489040284, "lat": 38.901595101186615 }, "geometry": { "type": "Point", "coordinates": [ -76.986696489040284, 38.901595101186615 ] } },
{ "type": "Feature", "properties": { "facility_id": 44, "name": "Training Academy", "address": "4600 SHEPHERD PARKWAY SW", "ward": "8", "facility_type": "Fire/EMS Station", "distance_to_substation_miles": 0.38, "grid_exposure_score": 2.1, "hazard_exposure_score": 0, "flood_risk_label": "Minimal risk", "criticality_score": 70, "resilience_score": 29, "priority_tier": "Low", "distance_to_solar_miles": 0.62, "nearby_solar_capacity_kw": 0.0, "der_opportunity": false, "lon": -77.016082800119435, "lat": 38.82054229920049 }, "geometry": { "type": "Point", "coordinates": [ -77.016082800119435, 38.82054229920049 ] } },
{ "type": "Feature", "properties": { "facility_id": 68, "name": "New Endeavors by Women", "address": "611 N St. NW", "ward": "Ward 6", "facility_type": "Homeless Shelter", "distance_to_substation_miles": 1.94, "grid_exposure_score": 25.0, "hazard_exposure_score": 0, "flood_risk_label": "Minimal risk", "criticality_score": 50, "resilience_score": 28, "priority_tier": "Low", "distance_to_solar_miles": 0.12, "nearby_solar_capacity_kw": 194.0, "der_opportunity": false, "lon": -77.020561632683368, "lat": 38.907479295820359 }, "geometry": { "type": "Point", "coordinates": [ -77.020561632683368, 38.907479295820359 ] } },
{ "type": "Feature", "properties": { "facility_id": 66, "name": "Mickey Leland House", "address": "455/457 Florida Avenue NW", "ward": "Ward 1", "facility_type": "Homeless Shelter", "distance_to_substation_miles": 2.09, "grid_exposure_score": 27.2, "hazard_exposure_score": 0, "flood_risk_label": "Minimal risk", "criticality_score": 50, "resilience_score": 28, "priority_tier": "Low", "distance_to_solar_miles": 0.31, "nearby_solar_capacity_kw": 215.2, "der_opportunity": false, "lon": -77.017725228921933, "lat": 38.914680218783396 }, "geometry": { "type": "Point", "coordinates": [ -77.017725228921933, 38.914680218783396 ] } },
{ "type": "Feature", "properties": { "facility_id": 64, "name": "Adams Place Shelter", "address": "2210 Adams Place, NE", "ward": "Ward 5", "facility_type": "Homeless Shelter", "distance_to_substation_miles": 1.64, "grid_exposure_score": 20.6, "hazard_exposure_score": 0, "flood_risk_label": "Minimal risk", "criticality_score": 50, "resilience_score": 26, "priority_tier": "Low", "distance_to_solar_miles": 0.13, "nearby_solar_capacity_kw": 870.2, "der_opportunity": false, "lon": -76.97487854623607, "lat": 38.919629752981251 }, "geometry": { "type": "Point", "coordinates": [ -76.97487854623607, 38.919629752981251 ] } },
{ "type": "Feature", "properties": { "facility_id": 67, "name": "Emery Work Bed Program", "address": "1725 Lincoln Road NE", "ward": "Ward 5", "facility_type": "Homeless Shelter", "distance_to_substation_miles": 1.66, "grid_exposure_score": 20.9, "hazard_exposure_score": 0, "flood_risk_label": "Minimal risk", "criticality_score": 50, "resilience_score": 26, "priority_tier": "Low", "distance_to_solar_miles": 0.2, "nearby_solar_capacity_kw": 411.1, "der_opportunity": false, "lon": -77.007906139110986, "lat": 38.913605700430047 }, "geometry": { "type": "Point", "coordinates": [ -77.007906139110986, 38.913605700430047 ] } },
{ "type": "Feature", "properties": { "facility_id": 70, "name": "Patricia Handy Shelter for Women", "address": "810 5th St. NW", "ward": "Ward 2", "facility_type": "Homeless Shelter", "distance_to_substation_miles": 1.71, "grid_exposure_score": 21.6, "hazard_exposure_score": 0, "flood_risk_label": "Minimal risk", "criticality_score": 50, "resilience_score": 26, "priority_tier": "Low", "distance_to_solar_miles": 0.11, "nearby_solar_capacity_kw": 370.9, "der_opportunity": false, "lon": -77.019171350350149, "lat": 38.900368427575003 }, "geometry": { "type": "Point", "coordinates": [ -77.019171350350149, 38.900368427575003 ] } },
{ "type": "Feature", "properties": { "facility_id": 65, "name": "New York Avenue Shelter", "address": "1355 New York Avenue, NE", "ward": "Ward 5", "facility_type": "Homeless Shelter", "distance_to_substation_miles": 1.38, "grid_exposure_score": 16.8, "hazard_exposure_score": 0, "flood_risk_label": "Minimal risk", "criticality_score": 50, "resilience_score": 25, "priority_tier": "Low", "distance_to_solar_miles": 0.23, "nearby_solar_capacity_kw": 1132.1, "der_opportunity": false, "lon": -76.985831714163837, "lat": 38.915075720316899 }, "geometry": { "type": "Point", "coordinates": [ -76.985831714163837, 38.915075720316899 ] } },
{ "type": "Feature", "properties": { "facility_id": 73, "name": "Center for Creative Non-Violence (CCNV)", "address": "425 2nd St, NW", "ward": "Ward 6", "facility_type": "Homeless Shelter", "distance_to_substation_miles": 1.36, "grid_exposure_score": 16.5, "hazard_exposure_score": 0, "flood_risk_label": "Minimal risk", "criticality_score": 50, "resilience_score": 25, "priority_tier": "Low", "distance_to_solar_miles": 0.49, "nearby_solar_capacity_kw": 106.0, "der_opportunity": false, "lon": -77.013299219786091, "lat": 38.895511573694996 }, "geometry": { "type": "Point", "coordinates": [ -77.013299219786091, 38.895511573694996 ] } },
{ "type": "Feature", "properties": { "facility_id": 75, "name": "801 East - Shelter", "address": "2700 Martin Luther King Jr. Ave, SE ", "ward": "Ward 8", "facility_type": "Homeless Shelter", "distance_to_substation_miles": 1.31, "grid_exposure_score": 15.7, "hazard_exposure_score": 0, "flood_risk_label": "Minimal risk", "criticality_score": 50, "resilience_score": 25, "priority_tier": "Low", "distance_to_solar_miles": 0.33, "nearby_solar_capacity_kw": 913.1, "der_opportunity": false, "lon": -76.99473085268373, "lat": 38.850692076766549 }, "geometry": { "type": "Point", "coordinates": [ -76.99473085268373, 38.850692076766549 ] } },
{ "type": "Feature", "properties": { "facility_id": 71, "name": "Central Union Mission", "address": "65 Massachusetts Avenue, NW", "ward": "Ward 6", "facility_type": "Homeless Shelter", "distance_to_substation_miles": 1.26, "grid_exposure_score": 15.0, "hazard_exposure_score": 0, "flood_risk_label": "Minimal risk", "criticality_score": 50, "resilience_score": 24, "priority_tier": "Low", "distance_to_solar_miles": 0.34, "nearby_solar_capacity_kw": 68.3, "der_opportunity": false, "lon": -77.011065459001671, "lat": 38.898692209955883 }, "geometry": { "type": "Point", "coordinates": [ -77.011065459001671, 38.898692209955883 ] } },
{ "type": "Feature", "properties": { "facility_id": 74, "name": "Harriet Tubman Shelter & Day Center", "address": "1900 Massachusetts Ave SE, Bldg. 27 ", "ward": "Ward 7", "facility_type": "Homeless Shelter", "distance_to_substation_miles": 1.01, "grid_exposure_score": 11.3, "hazard_exposure_score": 0, "flood_risk_label": "Minimal risk", "criticality_score": 50, "resilience_score": 23, "priority_tier": "Low", "distance_to_solar_miles": 0.38, "nearby_solar_capacity_kw": 25.9, "der_opportunity": false, "lon": -76.973991373156451, "lat": 38.885340511036091 }, "geometry": { "type": "Point", "coordinates": [ -76.973991373156451, 38.885340511036091 ] } },
{ "type": "Feature", "properties": { "facility_id": 69, "name": "Blair House ", "address": "635 Eye Street, NE", "ward": "Ward 6", "facility_type": "Homeless Shelter", "distance_to_substation_miles": 0.63, "grid_exposure_score": 5.7, "hazard_exposure_score": 0, "flood_risk_label": "Minimal risk", "criticality_score": 50, "resilience_score": 22, "priority_tier": "Low", "distance_to_solar_miles": 0.16, "nearby_solar_capacity_kw": 335.3, "der_opportunity": false, "lon": -76.99702162404688, "lat": 38.901069642301366 }, "geometry": { "type": "Point", "coordinates": [ -76.99702162404688, 38.901069642301366 ] } },
{ "type": "Feature", "properties": { "facility_id": 72, "name": "Sasha Bruce Youthworks", "address": "1022 Maryland Ave NE", "ward": "Ward 6", "facility_type": "Homeless Shelter", "distance_to_substation_miles": 0.24, "grid_exposure_score": 0.0, "hazard_exposure_score": 0, "flood_risk_label": "Minimal risk", "criticality_score": 50, "resilience_score": 20, "priority_tier": "Low", "distance_to_solar_miles": 0.28, "nearby_solar_capacity_kw": 436.6, "der_opportunity": false, "lon": -76.991835126437053, "lat": 38.897040765536751 }, "geometry": { "type": "Point", "coordinates": [ -76.991835126437053, 38.897040765536751 ] } }
]
}
