{
"type": "FeatureCollection",
"name": "solar_projects",
"crs": { "type": "name", "properties": { "name": "urn:ogc:def:crs:OGC:1.3:CRS84" } },
"features": [
{ "type": "Feature", "properties": { "site_name": "MN Gardens", "ward": "Ward 7", "capacity_kw": 161.64, "households_served": 46, "installation_type": "Rooftop" }, "geometry": { "type": "Point", "coordinates": [ -76.955921610194096, 38.885442129650599 ] } },
{ "type": "Feature", "properties": { "site_name": "MN Gardens", "ward": "Ward 7", "capacity_kw": 29.88, "households_served": 9, "installation_type": "Rooftop" }, "geometry": { "type": "Point", "coordinates": [ -76.955036310377395, 38.885260909963002 ] } },
{ "type": "Feature", "properties": { "site_name": "MN Gardens", "ward": "Ward 7", "capacity_kw": 30.6, "households_served": 9, "installation_type": "Canopy" }, "geometry": { "type": "Point", "coordinates": [ -76.955222610335198, 38.885186119643798 ] } },
{ "type": "Feature", "properties": { "site_name": "Kaye Stern - 4020 S Capitol St SE", "ward": "Ward 8", "capacity_kw": 15.87, "households_served": 5, "installation_type": "Rooftop" }, "geometry": { "type": "Point", "coordinates": [ -77.007351280337303, 38.830445800433402 ] } },
{ "type": "Feature", "properties": { "site_name": "Kaye Stern - 1850 U St SE", "ward": "Ward 8", "capacity_kw": 35.88, "households_served": 10, "installation_type": "Rooftop" }, "geometry": { "type": "Point", "coordinates": [ -76.978385639785401, 38.864728330048401 ] } },
{ "type": "Feature", "properties": { "site_name": "Kaye Stern - 3986 Pennsylvania Ave SE", "ward": "Ward 7", "capacity_kw": 45.54, "households_served": 13, "installation_type": "Rooftop" }, "geometry": { "type": "Point", "coordinates": [ -76.947518350391505, 38.864441789856699 ] } },
{ "type": "Feature", "properties": { "site_name": "Dupont Commons", "ward": "Ward 7", "capacity_kw": 465.45, "households_served": 133, "installation_type": "Ground Mount" }, "geometry": { "type": "Point", "coordinates": [ -76.947543999955599, 38.885356360407698 ] } },
{ "type": "Feature", "properties": { "site_name": "1330", "ward": "Ward 8", "capacity_kw": 44.41, "households_served": 13, "installation_type": "Rooftop" }, "geometry": null },
{ "type": "Feature", "properties": { "site_name": "Oxford Manor", "ward": "Ward 8", "capacity_kw": 414.72, "households_served": 118, "installation_type": "Rooftop" }, "geometry": { "type": "Point", "coordinates": [ -76.991730610379307, 38.859152230291301 ] } },
{ "type": "Feature", "properties": { "site_name": "The Overlook at Oxon Run", "ward": "Ward 8", "capacity_kw": 90.89, "households_served": 26, "installation_type": "Rooftop" }, "geometry": { "type": "Point", "coordinates": [ -76.9940641604326, 38.8359593298592 ] } },
{ "type": "Feature", "properties": { "site_name": "Cedar Heights", "ward": "Ward 8", "capacity_kw": 61.48, "households_served": 18, "installation_type": "Rooftop" }, "geometry": { "type": "Point", "coordinates": [ -76.984070980191504, 38.861546859599997 ] } },
{ "type": "Feature", "properties": { "site_name": "Wheeler Terrace", "ward": "Ward 8", "capacity_kw": 56.55, "households_served": 16, "installation_type": "Rooftop" }, "geometry": { "type": "Point", "coordinates": [ -76.989667259836196, 38.837285040272398 ] } },
{ "type": "Feature", "properties": { "site_name": "Mayfair Mansions", "ward": "Ward 7", "capacity_kw": 24.36, "households_served": 7, "installation_type": "Rooftop" }, "geometry": { "type": "Point", "coordinates": [ -76.9491954196329, 38.903484789891202 ] } },
{ "type": "Feature", "properties": { "site_name": "Edgewood Commons I", "ward": "Ward 5", "capacity_kw": 183.56, "households_served": 52, "installation_type": "Rooftop" }, "geometry": { "type": "Point", "coordinates": [ -76.9974976595893, 38.9239001395798 ] } },
{ "type": "Feature", "properties": { "site_name": "Edgewood Commons II", "ward": "Ward 5", "capacity_kw": 40.02, "households_served": 11, "installation_type": "Rooftop" }, "geometry": { "type": "Point", "coordinates": [ -77.000107479576499, 38.922927539874102 ] } },
{ "type": "Feature", "properties": { "site_name": "Edgewood Commons III", "ward": "Ward 5", "capacity_kw": 37.94, "households_served": 11, "installation_type": "Rooftop" }, "geometry": { "type": "Point", "coordinates": [ -76.996724800209293, 38.923449369692698 ] } },
{ "type": "Feature", "properties": { "site_name": "Edgewood Commons IV", "ward": "Ward 5", "capacity_kw": 55.2, "households_served": 16, "installation_type": "Rooftop" }, "geometry": { "type": "Point", "coordinates": [ -76.997876859629301, 38.9231147103756 ] } },
{ "type": "Feature", "properties": { "site_name": "Arbor View", "ward": "Ward 8", "capacity_kw": 13.92, "households_served": 4, "installation_type": "Rooftop" }, "geometry": { "type": "Point", "coordinates": [ -76.985863710341903, 38.834038539846802 ] } },
{ "type": "Feature", "properties": { "site_name": "Fort Stevens", "ward": "Ward 4", "capacity_kw": 59.45, "households_served": 17, "installation_type": "Rooftop" }, "geometry": { "type": "Point", "coordinates": [ -77.032385780079693, 38.964701069598703 ] } },
{ "type": "Feature", "properties": { "site_name": "Dupont Park Church", "ward": "Ward 7", "capacity_kw": 168.12, "households_served": 48, "installation_type": "Rooftop" }, "geometry": { "type": "Point", "coordinates": [ -76.947014960272199, 38.871697510232003 ] } },
{ "type": "Feature", "properties": { "site_name": "Dupont Park Canopy", "ward": "Ward 7", "capacity_kw": 0.0, "households_served": 0, "installation_type": "Canopy" }, "geometry": null },
{ "type": "Feature", "properties": { "site_name": "St Luke Baptist", "ward": "Ward 4", "capacity_kw": 55.05, "households_served": 16, "installation_type": "Rooftop" }, "geometry": { "type": "Point", "coordinates": [ -77.034204509630399, 38.952209159924799 ] } },
{ "type": "Feature", "properties": { "site_name": "Dupont Park Adventist Apartments", "ward": "Ward 8", "capacity_kw": 103.4, "households_served": 30, "installation_type": "Ground Mount" }, "geometry": { "type": "Point", "coordinates": [ -76.989973669649103, 38.830501999967403 ] } },
{ "type": "Feature", "properties": { "site_name": "750 9th", "ward": "Ward 2", "capacity_kw": 57.745, "households_served": 16, "installation_type": "Rooftop" }, "geometry": { "type": "Point", "coordinates": [ -77.024425299687806, 38.899503209705401 ] } },
{ "type": "Feature", "properties": { "site_name": "799 9th", "ward": "Ward 2", "capacity_kw": 55.4, "households_served": 16, "installation_type": "Rooftop" }, "geometry": { "type": "Point", "coordinates": [ -77.023511479671001, 38.899527180235197 ] } },
{ "type": "Feature", "properties": { "site_name": "77 K", "ward": "Ward 6", "capacity_kw": 68.34, "households_served": 20, "installation_type": "Rooftop" }, "geometry": { "type": "Point", "coordinates": [ -77.006361320118799, 38.902057320289103 ] } },
{ "type": "Feature", "properties": { "site_name": "616 H", "ward": "Ward 2", "capacity_kw": 106.0, "households_served": 30, "installation_type": "Rooftop" }, "geometry": { "type": "Point", "coordinates": [ -77.020833390348599, 38.899548139834799 ] } },
{ "type": "Feature", "properties": { "site_name": "1101 New York", "ward": "Ward 2", "capacity_kw": 64.0, "households_served": 18, "installation_type": "Rooftop" }, "geometry": { "type": "Point", "coordinates": [ -77.027590850337404, 38.901692549871299 ] } },
{ "type": "Feature", "properties": { "site_name": "1775 EYE", "ward": "Ward 2", "capacity_kw": 85.0, "households_served": 24, "installation_type": "Rooftop" }, "geometry": { "type": "Point", "coordinates": [ -77.0411974903719, 38.901593149604203 ] } },
{ "type": "Feature", "properties": { "site_name": "Jubilee Maycroft Apartments", "ward": "Ward 1", "capacity_kw": 65.0, "households_served": 19, "installation_type": "Rooftop" }, "geometry": { "type": "Point", "coordinates": [ -77.035188529826797, 38.926846529943496 ] } },
{ "type": "Feature", "properties": { "site_name": "Ludlow-Taylor Elementary School", "ward": "Ward 6", "capacity_kw": 230.0, "households_served": 66, "installation_type": "Rooftop, Canopy" }, "geometry": { "type": "Point", "coordinates": [ -76.996492490036403, 38.898744139630402 ] } },
{ "type": "Feature", "properties": { "site_name": "Media & Public Affairs Building", "ward": "Ward 2", "capacity_kw": 75.2, "households_served": 21, "installation_type": "Rooftop" }, "geometry": null },
{ "type": "Feature", "properties": { "site_name": "Lisner Auditorium", "ward": "Ward 2", "capacity_kw": 125.44, "households_served": 36, "installation_type": "Rooftop" }, "geometry": { "type": "Point", "coordinates": [ -77.046912250300096, 38.899299960225001 ] } },
{ "type": "Feature", "properties": { "site_name": "Monroe Hall", "ward": "Ward 2", "capacity_kw": 51.2, "households_served": 15, "installation_type": "Rooftop" }, "geometry": { "type": "Point", "coordinates": [ -77.047328970055901, 38.898568400411399 ] } },
{ "type": "Feature", "properties": { "site_name": "Smith Center", "ward": "Ward 2", "capacity_kw": 215.04, "households_served": 61, "installation_type": "Rooftop" }, "geometry": { "type": "Point", "coordinates": [ -77.049353239660306, 38.897841580024902 ] } },
{ "type": "Feature", "properties": { "site_name": "Funger & Duques Hall", "ward": "Ward 2", "capacity_kw": 125.76, "households_served": 36, "installation_type": "Rooftop" }, "geometry": { "type": "Point", "coordinates": [ -77.0494737596063, 38.8985875101056 ] } },
{ "type": "Feature", "properties": { "site_name": "Atlantic Terrace", "ward": "Ward 8", "capacity_kw": 133.2, "households_served": 38, "installation_type": "Rooftop" }, "geometry": { "type": "Point", "coordinates": [ -77.002276979798793, 38.829192099635698 ] } },
{ "type": "Feature", "properties": { "site_name": "Atlantic Terrace", "ward": "Ward 8", "capacity_kw": 66.0, "households_served": 19, "installation_type": "Rooftop" }, "geometry": { "type": "Point", "coordinates": [ -77.002832630421494, 38.8284107803333 ] } },
{ "type": "Feature", "properties": { "site_name": "Atlantic Terrace", "ward": "Ward 8", "capacity_kw": 133.2, "households_served": 38, "installation_type": "Rooftop" }, "geometry": { "type": "Point", "coordinates": [ -77.002420329934196, 38.828286199948202 ] } },
{ "type": "Feature", "properties": { "site_name": "Atlantic Terrace", "ward": "Ward 8", "capacity_kw": 99.9, "households_served": 29, "installation_type": "Rooftop" }, "geometry": { "type": "Point", "coordinates": [ -77.002888689661205, 38.827807569963397 ] } },
{ "type": "Feature", "properties": { "site_name": "Atlantic Terrace", "ward": "Ward 8", "capacity_kw": 66.6, "households_served": 19, "installation_type": "Rooftop" }, "geometry": { "type": "Point", "coordinates": [ -77.002587270186297, 38.8269134900656 ] } },
{ "type": "Feature", "properties": { "site_name": "Bristol Bladensburg", "ward": "Ward 5", "capacity_kw": 368.55, "households_served": 105, "installation_type": "Rooftop" }, "geometry": { "type": "Point", "coordinates": [ -76.961504870353494, 38.928967759954197 ] } },
{ "type": "Feature", "properties": { "site_name": "Bristol Bladensburg", "ward": "Ward 5", "capacity_kw": 52.65, "households_served": 15, "installation_type": "Rooftop" }, "geometry": { "type": "Point", "coordinates": [ -76.961219799654003, 38.929362860007998 ] } },
{ "type": "Feature", "properties": { "site_name": "Bristol Bladensburg", "ward": "Ward 5", "capacity_kw": 52.65, "households_served": 15, "installation_type": "Rooftop" }, "geometry": { "type": "Point", "coordinates": [ -76.960954899848701, 38.929118939587397 ] } },
{ "type": "Feature", "properties": { "site_name": "Light View Co-op", "ward": "Ward 4", "capacity_kw": 38.13, "households_served": 11, "installation_type": "Rooftop" }, "geometry": { "type": "Point", "coordinates": [ -77.027546369869, 38.970108759611598 ] } },
{ "type": "Feature", "properties": { "site_name": "Light View Co-op", "ward": "Ward 4", "capacity_kw": 38.13, "households_served": 11, "installation_type": "Rooftop" }, "geometry": { "type": "Point", "coordinates": [ -77.027542970431696, 38.970266409867001 ] } },
{ "type": "Feature", "properties": { "site_name": "Light View Co-op", "ward": "Ward 4", "capacity_kw": 38.13, "households_served": 11, "installation_type": "Rooftop" }, "geometry": { "type": "Point", "coordinates": [ -77.027743860091107, 38.970538860380103 ] } },
{ "type": "Feature", "properties": { "site_name": "Light View Co-op", "ward": "Ward 4", "capacity_kw": 38.13, "households_served": 11, "installation_type": "Rooftop" }, "geometry": { "type": "Point", "coordinates": [ -77.027458599634599, 38.970524779694898 ] } },
{ "type": "Feature", "properties": { "site_name": "Light View Co-op", "ward": "Ward 4", "capacity_kw": 38.13, "households_served": 11, "installation_type": "Rooftop" }, "geometry": { "type": "Point", "coordinates": [ -77.0278975398396, 38.970170659948003 ] } },
{ "type": "Feature", "properties": { "site_name": "Jeremiah House", "ward": "Ward 7", "capacity_kw": 25.92, "households_served": 7, "installation_type": " " }, "geometry": { "type": "Point", "coordinates": [ -76.978719899803494, 38.889504289991102 ] } },
{ "type": "Feature", "properties": { "site_name": "Shalom House", "ward": "Ward 5", "capacity_kw": 68.4, "households_served": 20, "installation_type": " " }, "geometry": { "type": "Point", "coordinates": [ -77.000836659783999, 38.915182799646502 ] } },
{ "type": "Feature", "properties": { "site_name": "O Street Office- 60", "ward": "Ward 5", "capacity_kw": 48.24, "households_served": 14, "installation_type": " " }, "geometry": { "type": "Point", "coordinates": [ -77.011097169798504, 38.908260930097903 ] } },
{ "type": "Feature", "properties": { "site_name": "Altamont", "ward": "Ward 8", "capacity_kw": 19.44, "households_served": 6, "installation_type": " " }, "geometry": { "type": "Point", "coordinates": [ -76.971284879793302, 38.863921710118802 ] } },
{ "type": "Feature", "properties": { "site_name": "Griffin House", "ward": "Ward 8", "capacity_kw": 27.72, "households_served": 8, "installation_type": " " }, "geometry": { "type": "Point", "coordinates": [ -76.967928230403501, 38.857406610226903 ] } },
{ "type": "Feature", "properties": { "site_name": "Fendall Heights", "ward": "Ward 8", "capacity_kw": 23.04, "households_served": 7, "installation_type": " " }, "geometry": { "type": "Point", "coordinates": [ -76.980228429798203, 38.8643259796603 ] } },
{ "type": "Feature", "properties": { "site_name": "Trinity Plaza", "ward": "Ward 8", "capacity_kw": 27.36, "households_served": 8, "installation_type": " " }, "geometry": { "type": "Point", "coordinates": [ -77.008431599938405, 38.831644489701503 ] } },
{ "type": "Feature", "properties": { "site_name": "Mission First", "ward": "Ward 5", "capacity_kw": 103.68, "households_served": 30, "installation_type": " " }, "geometry": { "type": "Point", "coordinates": [ -77.010274159724602, 38.908813190276597 ] } },
{ "type": "Feature", "properties": { "site_name": "Victory", "ward": "Ward 5", "capacity_kw": 190.78, "households_served": 55, "installation_type": " " }, "geometry": { "type": "Point", "coordinates": [ -77.005314979602602, 38.915753899722702 ] } },
{ "type": "Feature", "properties": { "site_name": "Victory", "ward": "Other/Unspecified", "capacity_kw": 94.9, "households_served": 27, "installation_type": " " }, "geometry": null },
{ "type": "Feature", "properties": { "site_name": "Victory", "ward": "Other/Unspecified", "capacity_kw": 69.55, "households_served": 20, "installation_type": " " }, "geometry": null },
{ "type": "Feature", "properties": { "site_name": "Victory", "ward": "Other/Unspecified", "capacity_kw": 64.35, "households_served": 18, "installation_type": " " }, "geometry": null },
{ "type": "Feature", "properties": { "site_name": "Elvans Road", "ward": "Ward 8", "capacity_kw": 8.96, "households_served": 3, "installation_type": " " }, "geometry": { "type": "Point", "coordinates": [ -76.9876912298663, 38.853922990054002 ] } },
{ "type": "Feature", "properties": { "site_name": "Elvans Road", "ward": "Ward 8", "capacity_kw": 7.06, "households_served": 2, "installation_type": " " }, "geometry": { "type": "Point", "coordinates": [ -76.988490200162602, 38.853859749727697 ] } },
{ "type": "Feature", "properties": { "site_name": "Elvans Road", "ward": "Ward 8", "capacity_kw": 7.04, "households_served": 2, "installation_type": " " }, "geometry": { "type": "Point", "coordinates": [ -76.988463219601798, 38.853984689841603 ] } },
{ "type": "Feature", "properties": { "site_name": "Elvans Road", "ward": "Ward 8", "capacity_kw": 8.64, "households_served": 2, "installation_type": " " }, "geometry": { "type": "Point", "coordinates": [ -76.987719019816893, 38.8537939103607 ] } },
{ "type": "Feature", "properties": { "site_name": "Elvans Road", "ward": "Ward 8", "capacity_kw": 12.48, "households_served": 4, "installation_type": " " }, "geometry": { "type": "Point", "coordinates": [ -76.988463219601798, 38.853984689841603 ] } },
{ "type": "Feature", "properties": { "site_name": "Elvans Road", "ward": "Ward 8", "capacity_kw": 8.96, "households_served": 3, "installation_type": " " }, "geometry": { "type": "Point", "coordinates": [ -76.987719019816893, 38.8537939103607 ] } },
{ "type": "Feature", "properties": { "site_name": "Ft. Lincoln", "ward": "Ward 5", "capacity_kw": 119.93, "households_served": 34, "installation_type": " " }, "geometry": { "type": "Point", "coordinates": [ -76.960936110313199, 38.928060280157901 ] } },
{ "type": "Feature", "properties": { "site_name": "Hopkins", "ward": "Ward 6", "capacity_kw": 31.61, "households_served": 9, "installation_type": " " }, "geometry": { "type": "Point", "coordinates": [ -76.9885399398663, 38.877773390229798 ] } },
{ "type": "Feature", "properties": { "site_name": "Hopkins", "ward": "Ward 6", "capacity_kw": 12.18, "households_served": 3, "installation_type": " " }, "geometry": { "type": "Point", "coordinates": [ -76.9906992399779, 38.878227900397299 ] } },
{ "type": "Feature", "properties": { "site_name": "Hopkins", "ward": "Ward 6", "capacity_kw": 24.07, "households_served": 7, "installation_type": " " }, "geometry": { "type": "Point", "coordinates": [ -76.990348560137903, 38.878153469806797 ] } },
{ "type": "Feature", "properties": { "site_name": "Hopkins", "ward": "Ward 6", "capacity_kw": 53.65, "households_served": 15, "installation_type": " " }, "geometry": { "type": "Point", "coordinates": [ -76.989713770074403, 38.878185570207997 ] } },
{ "type": "Feature", "properties": { "site_name": "LeDroit", "ward": "Ward 1", "capacity_kw": 21.17, "households_served": 6, "installation_type": " " }, "geometry": { "type": "Point", "coordinates": [ -77.017403379662198, 38.919221299723198 ] } },
{ "type": "Feature", "properties": { "site_name": "Potomac", "ward": "Ward 6", "capacity_kw": 87.58, "households_served": 25, "installation_type": " " }, "geometry": { "type": "Point", "coordinates": [ -76.989225959810099, 38.8810875502503 ] } },
{ "type": "Feature", "properties": { "site_name": "Parkway Overlook", "ward": "Ward 8", "capacity_kw": 158.0, "households_served": 45, "installation_type": " " }, "geometry": { "type": "Point", "coordinates": [ -76.988801120075607, 38.851847739681503 ] } },
{ "type": "Feature", "properties": { "site_name": "Parkway Overlook", "ward": "Ward 8", "capacity_kw": 46.0, "households_served": 13, "installation_type": " " }, "geometry": { "type": "Point", "coordinates": [ -76.988188439844606, 38.851271169928602 ] } },
{ "type": "Feature", "properties": { "site_name": "Parkway Overlook", "ward": "Ward 8", "capacity_kw": 40.0, "households_served": 11, "installation_type": " " }, "geometry": { "type": "Point", "coordinates": [ -76.987771669726698, 38.851086719876299 ] } },
{ "type": "Feature", "properties": { "site_name": "Parkway Overlook", "ward": "Ward 8", "capacity_kw": 56.0, "households_served": 16, "installation_type": " " }, "geometry": { "type": "Point", "coordinates": [ -76.9877269797163, 38.851707100102701 ] } },
{ "type": "Feature", "properties": { "site_name": "Parkway Overlook", "ward": "Ward 8", "capacity_kw": 75.0, "households_served": 21, "installation_type": " " }, "geometry": { "type": "Point", "coordinates": [ -76.987442669843304, 38.8509850497203 ] } },
{ "type": "Feature", "properties": { "site_name": "Parkway Overlook", "ward": "Ward 8", "capacity_kw": 75.0, "households_served": 21, "installation_type": " " }, "geometry": { "type": "Point", "coordinates": [ -76.987006200076095, 38.850791949988498 ] } },
{ "type": "Feature", "properties": { "site_name": "Parkway Overlook", "ward": "Ward 8", "capacity_kw": 75.0, "households_served": 21, "installation_type": " " }, "geometry": { "type": "Point", "coordinates": [ -76.986912009581502, 38.851191550249901 ] } },
{ "type": "Feature", "properties": { "site_name": "Parkway Overlook Community Center", "ward": "Ward 8", "capacity_kw": 180.5, "households_served": 52, "installation_type": " " }, "geometry": { "type": "Point", "coordinates": [ -76.9865006497851, 38.850389940443399 ] } },
{ "type": "Feature", "properties": { "site_name": "Oxon Run", "ward": "Ward 8", "capacity_kw": 2650.0, "households_served": 757, "installation_type": "Ground mount" }, "geometry": null },
{ "type": "Feature", "properties": { "site_name": "Savoy Court", "ward": "Ward 8", "capacity_kw": 120.08, "households_served": 34, "installation_type": "Rooftop" }, "geometry": { "type": "Point", "coordinates": [ -77.004921500127097, 38.848232459660302 ] } },
{ "type": "Feature", "properties": { "site_name": "2nd St NE", "ward": "Ward 4", "capacity_kw": 214.32, "households_served": 61, "installation_type": "Rooftop" }, "geometry": { "type": "Point", "coordinates": [ -77.004668099952795, 38.959712790113201 ] } },
{ "type": "Feature", "properties": { "site_name": "Capital Area Food Bank", "ward": "Ward 5", "capacity_kw": 358.16, "households_served": 102, "installation_type": "Rooftop" }, "geometry": { "type": "Point", "coordinates": [ -76.9994568902233, 38.947300660197399 ] } },
{ "type": "Feature", "properties": { "site_name": "Thompson Properties 1", "ward": "Ward 4", "capacity_kw": 74.25, "households_served": 21, "installation_type": "Rooftop" }, "geometry": { "type": "Point", "coordinates": [ -77.014817649814603, 38.944986219838199 ] } },
{ "type": "Feature", "properties": { "site_name": "Thompson Properties 2", "ward": "Ward 4", "capacity_kw": 18.0, "households_served": 5, "installation_type": "Rooftop" }, "geometry": { "type": "Point", "coordinates": [ -77.029282690044099, 38.938845870140803 ] } },
{ "type": "Feature", "properties": { "site_name": "Thompson Properties 3", "ward": "Ward 4", "capacity_kw": 39.0, "households_served": 11, "installation_type": "Rooftop" }, "geometry": { "type": "Point", "coordinates": [ -77.0242881198009, 38.957063020442099 ] } },
{ "type": "Feature", "properties": { "site_name": "Demers Real Estate 1", "ward": "Ward 5", "capacity_kw": 117.375, "households_served": 34, "installation_type": "Rooftop" }, "geometry": { "type": "Point", "coordinates": [ -76.991906589717303, 38.917605500393499 ] } },
{ "type": "Feature", "properties": { "site_name": "Demers Real Estate 2", "ward": "Ward 5", "capacity_kw": 45.0, "households_served": 13, "installation_type": "Rooftop" }, "geometry": { "type": "Point", "coordinates": [ -76.9907507396548, 38.917447229605997 ] } },
{ "type": "Feature", "properties": { "site_name": "Demers Real Estate 3", "ward": "Ward 5", "capacity_kw": 69.75, "households_served": 20, "installation_type": "Rooftop" }, "geometry": { "type": "Point", "coordinates": [ -76.9913124499096, 38.917173150420602 ] } },
{ "type": "Feature", "properties": { "site_name": "Demers Real Estate 4", "ward": "Ward 5", "capacity_kw": 102.375, "households_served": 29, "installation_type": "Rooftop" }, "geometry": { "type": "Point", "coordinates": [ -76.992642499551593, 38.917640410276803 ] } },
{ "type": "Feature", "properties": { "site_name": "Demers Real Estate 5", "ward": "Ward 5", "capacity_kw": 81.75, "households_served": 23, "installation_type": "Rooftop" }, "geometry": { "type": "Point", "coordinates": [ -76.991952789689407, 38.916980860078702 ] } },
{ "type": "Feature", "properties": { "site_name": "Demers Real Estate 6", "ward": "Ward 5", "capacity_kw": 77.25, "households_served": 22, "installation_type": "Rooftop" }, "geometry": { "type": "Point", "coordinates": [ -76.9916054598241, 38.91712406992 ] } },
{ "type": "Feature", "properties": { "site_name": "Potomac Place Condos 1", "ward": "Ward 6", "capacity_kw": 87.69, "households_served": 25, "installation_type": "Rooftop" }, "geometry": { "type": "Point", "coordinates": [ -77.016560910057905, 38.879500350260997 ] } },
{ "type": "Feature", "properties": { "site_name": "Potomac Place Condos 2", "ward": "Ward 6", "capacity_kw": 76.5, "households_served": 22, "installation_type": "Rooftop" }, "geometry": { "type": "Point", "coordinates": [ -77.016568299787096, 38.881058979688198 ] } },
{ "type": "Feature", "properties": { "site_name": "5112 Connecticut Ave NW", "ward": "Ward 3", "capacity_kw": 75.24, "households_served": 21, "installation_type": "Rooftop" }, "geometry": { "type": "Point", "coordinates": [ -77.071072600020401, 38.956360839680997 ] } },
{ "type": "Feature", "properties": { "site_name": "Greg Selfridge 1", "ward": "Ward 5", "capacity_kw": 17.34, "households_served": 5, "installation_type": "Rooftop" }, "geometry": { "type": "Point", "coordinates": [ -76.978710939857905, 38.928782649799501 ] } },
{ "type": "Feature", "properties": { "site_name": "Greg Selfridge 2", "ward": "Ward 5", "capacity_kw": 33.32, "households_served": 10, "installation_type": "Rooftop" }, "geometry": { "type": "Point", "coordinates": [ -76.977979800027697, 38.929413429786003 ] } },
{ "type": "Feature", "properties": { "site_name": "Horning Brothers 1", "ward": "Ward 7", "capacity_kw": 30.6, "households_served": 9, "installation_type": "Rooftop" }, "geometry": { "type": "Point", "coordinates": [ -76.942913920441001, 38.8915944502237 ] } },
{ "type": "Feature", "properties": { "site_name": "Horning Brothers 4", "ward": "Ward 8", "capacity_kw": 23.76, "households_served": 7, "installation_type": "Rooftop" }, "geometry": { "type": "Point", "coordinates": [ -76.984965970203305, 38.857862329982602 ] } },
{ "type": "Feature", "properties": { "site_name": "Horning Brothers 5", "ward": "Ward 8", "capacity_kw": 35.28, "households_served": 10, "installation_type": "Rooftop" }, "geometry": { "type": "Point", "coordinates": [ -76.981504860061193, 38.856408410419903 ] } },
{ "type": "Feature", "properties": { "site_name": "Horning Brothers 6", "ward": "Ward 7", "capacity_kw": 48.96, "households_served": 14, "installation_type": "Rooftop" }, "geometry": { "type": "Point", "coordinates": [ -76.978912889818005, 38.899120370109102 ] } },
{ "type": "Feature", "properties": { "site_name": "Horning Brothers 7", "ward": "Ward 7", "capacity_kw": 19.08, "households_served": 5, "installation_type": "Rooftop" }, "geometry": { "type": "Point", "coordinates": [ -76.9558714900772, 38.887099570289003 ] } },
{ "type": "Feature", "properties": { "site_name": "Horning Brothers 8", "ward": "Ward 8", "capacity_kw": 33.12, "households_served": 9, "installation_type": "Rooftop" }, "geometry": { "type": "Point", "coordinates": [ -76.986097669871498, 38.859875789735902 ] } },
{ "type": "Feature", "properties": { "site_name": "Horning Brothers 9", "ward": "Ward 7", "capacity_kw": 274.68, "households_served": 78, "installation_type": "Rooftop" }, "geometry": { "type": "Point", "coordinates": [ -76.954804199853896, 38.884865620152297 ] } },
{ "type": "Feature", "properties": { "site_name": "Horning Brothers 10", "ward": "Ward 7", "capacity_kw": 48.96, "households_served": 14, "installation_type": "Rooftop" }, "geometry": { "type": "Point", "coordinates": [ -76.958998469703602, 38.885779719858199 ] } },
{ "type": "Feature", "properties": { "site_name": "Horning Brothers 11", "ward": "Ward 7", "capacity_kw": 35.64, "households_served": 10, "installation_type": "Rooftop" }, "geometry": { "type": "Point", "coordinates": [ -76.944916750207796, 38.8900527298496 ] } },
{ "type": "Feature", "properties": { "site_name": "Horning Brothers 12", "ward": "Ward 7", "capacity_kw": 28.8, "households_served": 8, "installation_type": "Rooftop" }, "geometry": { "type": "Point", "coordinates": [ -76.961684709581604, 38.8838155402551 ] } },
{ "type": "Feature", "properties": { "site_name": "Horning Brothers 14", "ward": "Ward 7", "capacity_kw": 48.6, "households_served": 14, "installation_type": "Rooftop" }, "geometry": { "type": "Point", "coordinates": [ -76.977963149979402, 38.898949669791499 ] } },
{ "type": "Feature", "properties": { "site_name": "Horning Brothers 15", "ward": "Ward 7", "capacity_kw": 80.64, "households_served": 23, "installation_type": "Rooftop" }, "geometry": { "type": "Point", "coordinates": [ -76.978672359841497, 38.898909710215001 ] } },
{ "type": "Feature", "properties": { "site_name": "Horning Brothers 16", "ward": "Ward 8", "capacity_kw": 29.52, "households_served": 8, "installation_type": "Rooftop" }, "geometry": { "type": "Point", "coordinates": [ -76.985569140103706, 38.860033529923498 ] } },
{ "type": "Feature", "properties": { "site_name": "Horning Brothers 17", "ward": "Ward 8", "capacity_kw": 32.4, "households_served": 9, "installation_type": "Rooftop" }, "geometry": { "type": "Point", "coordinates": [ -76.9851944897339, 38.8598453800603 ] } },
{ "type": "Feature", "properties": { "site_name": "Horning Brothers 18", "ward": "Ward 8", "capacity_kw": 33.12, "households_served": 9, "installation_type": "Rooftop" }, "geometry": { "type": "Point", "coordinates": [ -76.985496109757605, 38.859392930239601 ] } },
{ "type": "Feature", "properties": { "site_name": "Horning Brothers 19", "ward": "Ward 8", "capacity_kw": 17.28, "households_served": 5, "installation_type": "Rooftop" }, "geometry": { "type": "Point", "coordinates": [ -76.986239359858502, 38.859433469878802 ] } },
{ "type": "Feature", "properties": { "site_name": "Horning Brothers 20", "ward": "Ward 8", "capacity_kw": 17.28, "households_served": 5, "installation_type": "Rooftop" }, "geometry": { "type": "Point", "coordinates": [ -76.986023259965506, 38.859174090112198 ] } },
{ "type": "Feature", "properties": { "site_name": "Horning Brothers 21", "ward": "Ward 7", "capacity_kw": 34.56, "households_served": 10, "installation_type": "Rooftop" }, "geometry": { "type": "Point", "coordinates": [ -76.944288070138299, 38.890077470199103 ] } },
{ "type": "Feature", "properties": { "site_name": "Horning Brothers 22", "ward": "Ward 7", "capacity_kw": 22.32, "households_served": 6, "installation_type": "Rooftop" }, "geometry": { "type": "Point", "coordinates": [ -76.959514800167895, 38.886239060284503 ] } },
{ "type": "Feature", "properties": { "site_name": "Horning Brothers 23", "ward": "Ward 7", "capacity_kw": 21.6, "households_served": 6, "installation_type": "Rooftop" }, "geometry": { "type": "Point", "coordinates": [ -76.958708789978601, 38.8862300400843 ] } },
{ "type": "Feature", "properties": { "site_name": "AHD 1", "ward": "Ward 8", "capacity_kw": 63.72, "households_served": 18, "installation_type": "Rooftop" }, "geometry": { "type": "Point", "coordinates": [ -77.003353149927904, 38.835035139760002 ] } },
{ "type": "Feature", "properties": { "site_name": "AHD - Royal Courts 1", "ward": "Ward 8", "capacity_kw": 129.6, "households_served": 37, "installation_type": "Rooftop" }, "geometry": { "type": "Point", "coordinates": [ -77.002105819927607, 38.836244649670903 ] } },
{ "type": "Feature", "properties": { "site_name": "AHD - Savannah Street 2", "ward": "Ward 8", "capacity_kw": 132.825, "households_served": 38, "installation_type": "Rooftop" }, "geometry": { "type": "Point", "coordinates": [ -77.000830729654396, 38.841499650088799 ] } },
{ "type": "Feature", "properties": { "site_name": "Fort Chaplin - North Lot 1", "ward": "Ward 7", "capacity_kw": 83.82, "households_served": 24, "installation_type": "Rooftop" }, "geometry": { "type": "Point", "coordinates": [ -76.940579640138296, 38.89074280034 ] } },
{ "type": "Feature", "properties": { "site_name": "Fort Chaplin - North Lot 2", "ward": "Ward 7", "capacity_kw": 86.46, "households_served": 25, "installation_type": "Rooftop" }, "geometry": { "type": "Point", "coordinates": [ -76.940224790141897, 38.8901283700283 ] } },
{ "type": "Feature", "properties": { "site_name": "Fort Chaplin - North Lot 3", "ward": "Ward 7", "capacity_kw": 78.54, "households_served": 22, "installation_type": "Rooftop" }, "geometry": { "type": "Point", "coordinates": [ -76.941221329800499, 38.890330550214799 ] } },
{ "type": "Feature", "properties": { "site_name": "Fort Chaplin - North Lot 4", "ward": "Ward 7", "capacity_kw": 109.89, "households_served": 31, "installation_type": "Rooftop" }, "geometry": { "type": "Point", "coordinates": [ -76.941940899852597, 38.890651420226902 ] } },
{ "type": "Feature", "properties": { "site_name": "Fort Chaplin - North Lot 5", "ward": "Ward 7", "capacity_kw": 91.74, "households_served": 26, "installation_type": "Rooftop" }, "geometry": { "type": "Point", "coordinates": [ -76.942186109901002, 38.890327989844899 ] } },
{ "type": "Feature", "properties": { "site_name": "Fort Chaplin - North Lot 8", "ward": "Ward 7", "capacity_kw": 85.47, "households_served": 24, "installation_type": "Rooftop" }, "geometry": { "type": "Point", "coordinates": [ -76.9419516503484, 38.891039599997598 ] } },
{ "type": "Feature", "properties": { "site_name": "Fort Chaplin - North Lot 9", "ward": "Ward 7", "capacity_kw": 83.49, "households_served": 24, "installation_type": "Rooftop" }, "geometry": { "type": "Point", "coordinates": [ -76.941955780035201, 38.891497050048898 ] } },
{ "type": "Feature", "properties": { "site_name": "Fort Chaplin - North Lot 10", "ward": "Ward 7", "capacity_kw": 60.06, "households_served": 17, "installation_type": "Rooftop" }, "geometry": { "type": "Point", "coordinates": [ -76.940866809855393, 38.891388490186699 ] } },
{ "type": "Feature", "properties": { "site_name": "Fort Chaplin - North Lot 12", "ward": "Ward 7", "capacity_kw": 35.97, "households_served": 10, "installation_type": "Rooftop" }, "geometry": { "type": "Point", "coordinates": [ -76.9402048000115, 38.891564109795901 ] } },
{ "type": "Feature", "properties": { "site_name": "Fort Chaplin - North Lot 13", "ward": "Ward 7", "capacity_kw": 86.13, "households_served": 25, "installation_type": "Rooftop" }, "geometry": { "type": "Point", "coordinates": [ -76.940263149824503, 38.890985959934099 ] } },
{ "type": "Feature", "properties": { "site_name": "Fort Chaplin - South Lot 1", "ward": "Ward 7", "capacity_kw": 89.76, "households_served": 26, "installation_type": "Rooftop" }, "geometry": { "type": "Point", "coordinates": [ -76.940293039691994, 38.888179499584297 ] } },
{ "type": "Feature", "properties": { "site_name": "Fort Chaplin - South Lot 2", "ward": "Ward 7", "capacity_kw": 86.46, "households_served": 25, "installation_type": "Rooftop" }, "geometry": { "type": "Point", "coordinates": [ -76.940010639978993, 38.888870929849602 ] } },
{ "type": "Feature", "properties": { "site_name": "Fort Chaplin - South Lot 3", "ward": "Ward 7", "capacity_kw": 73.92, "households_served": 21, "installation_type": "Rooftop" }, "geometry": { "type": "Point", "coordinates": [ -76.940318489606597, 38.889318359654602 ] } },
{ "type": "Feature", "properties": { "site_name": "Fort Chaplin - South Lot 4", "ward": "Ward 7", "capacity_kw": 76.56, "households_served": 22, "installation_type": "Rooftop" }, "geometry": { "type": "Point", "coordinates": [ -76.940746219762204, 38.888499710393397 ] } },
{ "type": "Feature", "properties": { "site_name": "Fort Chaplin - South Lot 5", "ward": "Ward 7", "capacity_kw": 81.84, "households_served": 23, "installation_type": "Rooftop" }, "geometry": { "type": "Point", "coordinates": [ -76.940952019719902, 38.888156619932097 ] } },
{ "type": "Feature", "properties": { "site_name": "Townhomes on Capitol Hill - North", "ward": "Ward 6", "capacity_kw": 137.52, "households_served": 39, "installation_type": "Rooftop" }, "geometry": { "type": "Point", "coordinates": [ -76.997007539866004, 38.880104840366101 ] } },
{ "type": "Feature", "properties": { "site_name": "Townhomes on Capitol Hill - South", "ward": "Ward 6", "capacity_kw": 107.64, "households_served": 31, "installation_type": "Rooftop" }, "geometry": { "type": "Point", "coordinates": [ -76.996365170316295, 38.879539719882203 ] } },
{ "type": "Feature", "properties": { "site_name": "Bob Siegel Canopy", "ward": "Ward 5", "capacity_kw": 241.2, "households_served": 69, "installation_type": "Canopy" }, "geometry": { "type": "Point", "coordinates": [ -76.979888540024106, 38.916167880143597 ] } },
{ "type": "Feature", "properties": { "site_name": "Bob Siegel", "ward": "Ward 5", "capacity_kw": 165.6, "households_served": 47, "installation_type": "Rooftop" }, "geometry": { "type": "Point", "coordinates": [ -76.981683829644993, 38.914588620268702 ] } },
{ "type": "Feature", "properties": { "site_name": "NOVO Properties", "ward": "Ward 4", "capacity_kw": 39.44, "households_served": 11, "installation_type": "Rooftop" }, "geometry": { "type": "Point", "coordinates": [ -77.016556860410702, 38.952940379794804 ] } },
{ "type": "Feature", "properties": { "site_name": "Progressive National Baptist Convention", "ward": "Ward 7", "capacity_kw": 144.375, "households_served": 41, "installation_type": "Rooftop" }, "geometry": { "type": "Point", "coordinates": [ -76.928893299985802, 38.897212960209998 ] } },
{ "type": "Feature", "properties": { "site_name": "Children's Hospital", "ward": "Ward 4", "capacity_kw": 1148.68, "households_served": 328, "installation_type": "Canopy" }, "geometry": null },
{ "type": "Feature", "properties": { "site_name": "Woodmont Building 1", "ward": "Ward 8", "capacity_kw": 81.0, "households_served": 23, "installation_type": "Rooftop" }, "geometry": { "type": "Point", "coordinates": [ -76.972457149677695, 38.862487970443503 ] } },
{ "type": "Feature", "properties": { "site_name": "Woodmont Building 2", "ward": "Ward 8", "capacity_kw": 63.0, "households_served": 18, "installation_type": "Rooftop" }, "geometry": { "type": "Point", "coordinates": [ -76.973161479818401, 38.862206169678998 ] } },
{ "type": "Feature", "properties": { "site_name": "Woodmont Building 3", "ward": "Ward 8", "capacity_kw": 81.0, "households_served": 23, "installation_type": "Rooftop" }, "geometry": { "type": "Point", "coordinates": [ -76.973648600302596, 38.861680800128902 ] } },
{ "type": "Feature", "properties": { "site_name": "Woodmont Building 4", "ward": "Ward 8", "capacity_kw": 63.0, "households_served": 18, "installation_type": "Rooftop" }, "geometry": { "type": "Point", "coordinates": [ -76.973525289760303, 38.861119540434501 ] } },
{ "type": "Feature", "properties": { "site_name": "Woodmont Building 6", "ward": "Ward 8", "capacity_kw": 81.0, "households_served": 23, "installation_type": "Rooftop" }, "geometry": { "type": "Point", "coordinates": [ -76.972741080036798, 38.861799530424001 ] } },
{ "type": "Feature", "properties": { "site_name": "Cole Gardens Building 1", "ward": "Ward 8", "capacity_kw": 99.0, "households_served": 28, "installation_type": "Rooftop" }, "geometry": { "type": "Point", "coordinates": [ -76.986846430118604, 38.851936209588501 ] } },
{ "type": "Feature", "properties": { "site_name": "Cole Gardens Building 2", "ward": "Ward 8", "capacity_kw": 55.5, "households_served": 16, "installation_type": "Rooftop" }, "geometry": { "type": "Point", "coordinates": [ -76.986137349758806, 38.851941869921397 ] } },
{ "type": "Feature", "properties": { "site_name": "Cole Gardens Building 3", "ward": "Ward 8", "capacity_kw": 112.875, "households_served": 32, "installation_type": "Rooftop" }, "geometry": null },
{ "type": "Feature", "properties": { "site_name": "Benning Building 2", "ward": "Ward 7", "capacity_kw": 22.5, "households_served": 6, "installation_type": "Rooftop" }, "geometry": { "type": "Point", "coordinates": [ -76.939345129973702, 38.883422139919901 ] } },
{ "type": "Feature", "properties": { "site_name": "Benning Building 3", "ward": "Ward 7", "capacity_kw": 18.0, "households_served": 5, "installation_type": "Rooftop" }, "geometry": { "type": "Point", "coordinates": [ -76.939836259635598, 38.883392310306903 ] } },
{ "type": "Feature", "properties": { "site_name": "Benning Building 4", "ward": "Ward 7", "capacity_kw": 22.5, "households_served": 6, "installation_type": "Rooftop" }, "geometry": { "type": "Point", "coordinates": [ -76.939792649710995, 38.883029969857297 ] } },
{ "type": "Feature", "properties": { "site_name": "Benning Building 5", "ward": "Ward 7", "capacity_kw": 25.5, "households_served": 7, "installation_type": "Rooftop" }, "geometry": { "type": "Point", "coordinates": [ -76.939698850421607, 38.882606970135598 ] } },
{ "type": "Feature", "properties": { "site_name": "Benning Building 6", "ward": "Ward 7", "capacity_kw": 51.0, "households_served": 15, "installation_type": "Rooftop" }, "geometry": { "type": "Point", "coordinates": [ -76.939584599649507, 38.881962179611001 ] } },
{ "type": "Feature", "properties": { "site_name": "Benning Building 7", "ward": "Ward 7", "capacity_kw": 19.125, "households_served": 5, "installation_type": "Rooftop" }, "geometry": { "type": "Point", "coordinates": [ -76.939038189560705, 38.8819596498181 ] } },
{ "type": "Feature", "properties": { "site_name": "Benning Building 8", "ward": "Ward 7", "capacity_kw": 32.25, "households_served": 9, "installation_type": "Rooftop" }, "geometry": { "type": "Point", "coordinates": [ -76.938835110052295, 38.882099259673197 ] } },
{ "type": "Feature", "properties": { "site_name": "Benning Building 9", "ward": "Ward 7", "capacity_kw": 22.5, "households_served": 6, "installation_type": "Rooftop" }, "geometry": { "type": "Point", "coordinates": [ -76.938903730123002, 38.882451169785703 ] } },
{ "type": "Feature", "properties": { "site_name": "Benning Building 10", "ward": "Ward 7", "capacity_kw": 19.5, "households_served": 6, "installation_type": "Rooftop" }, "geometry": { "type": "Point", "coordinates": [ -76.939175999872504, 38.882534449705098 ] } },
{ "type": "Feature", "properties": { "site_name": "Benning Building 11", "ward": "Ward 7", "capacity_kw": 19.24, "households_served": 5, "installation_type": "Rooftop" }, "geometry": { "type": "Point", "coordinates": [ -76.939236820123099, 38.882853319624999 ] } },
{ "type": "Feature", "properties": { "site_name": "5054 Astor Place", "ward": "Ward 7", "capacity_kw": 19.5, "households_served": 6, "installation_type": "Rooftop" }, "geometry": { "type": "Point", "coordinates": [ -76.928475459674701, 38.887284370177603 ] } },
{ "type": "Feature", "properties": { "site_name": "5215 B St", "ward": "Ward 7", "capacity_kw": 24.32, "households_served": 7, "installation_type": "Rooftop" }, "geometry": { "type": "Point", "coordinates": [ -76.926448799672301, 38.885961849659701 ] } },
{ "type": "Feature", "properties": { "site_name": "5509 Nannie Helen Ave", "ward": "Ward 7", "capacity_kw": 42.375, "households_served": 12, "installation_type": "Rooftop" }, "geometry": { "type": "Point", "coordinates": [ -76.921178070111793, 38.898104250410903 ] } },
{ "type": "Feature", "properties": { "site_name": "5615 Nannie Helen Ave", "ward": "Ward 7", "capacity_kw": 39.0, "households_served": 11, "installation_type": "Rooftop" }, "geometry": { "type": "Point", "coordinates": [ -76.919463800413993, 38.898163530122901 ] } },
{ "type": "Feature", "properties": { "site_name": "Glover Park", "ward": "Ward 3", "capacity_kw": 134.9, "households_served": 39, "installation_type": "Rooftop" }, "geometry": { "type": "Point", "coordinates": [ -77.081594669758204, 38.923239479618402 ] } },
{ "type": "Feature", "properties": { "site_name": "St. Luke's", "ward": "Ward 7", "capacity_kw": 137.025, "households_served": 39, "installation_type": "Rooftop" }, "geometry": null },
{ "type": "Feature", "properties": { "site_name": "Echostage", "ward": "Ward 5", "capacity_kw": 241.155, "households_served": 69, "installation_type": "Rooftop" }, "geometry": { "type": "Point", "coordinates": [ -76.972448119584996, 38.919888420414303 ] } },
{ "type": "Feature", "properties": { "site_name": "Horning Girard 1", "ward": "Ward 1", "capacity_kw": 35.28, "households_served": 10, "installation_type": "Rooftop" }, "geometry": { "type": "Point", "coordinates": [ -77.033160240252897, 38.925222119605202 ] } },
{ "type": "Feature", "properties": { "site_name": "Horning Girard 2", "ward": "Ward 1", "capacity_kw": 46.44, "households_served": 13, "installation_type": "Rooftop" }, "geometry": { "type": "Point", "coordinates": [ -77.033685509978298, 38.925172510303199 ] } },
{ "type": "Feature", "properties": { "site_name": "Paradise R15S", "ward": "Ward 7", "capacity_kw": 79.95, "households_served": 23, "installation_type": "Rooftop" }, "geometry": { "type": "Point", "coordinates": [ -76.9510099403564, 38.904144250157103 ] } },
{ "type": "Feature", "properties": { "site_name": "Paradise R14S", "ward": "Ward 7", "capacity_kw": 63.18, "households_served": 18, "installation_type": "Rooftop" }, "geometry": { "type": "Point", "coordinates": [ -76.951354289868604, 38.904515000167201 ] } },
{ "type": "Feature", "properties": { "site_name": "Paradise R13S", "ward": "Ward 7", "capacity_kw": 69.42, "households_served": 20, "installation_type": "Rooftop" }, "geometry": { "type": "Point", "coordinates": [ -76.951456940285496, 38.904950870086601 ] } },
{ "type": "Feature", "properties": { "site_name": "Paradise R12S", "ward": "Ward 7", "capacity_kw": 90.87, "households_served": 26, "installation_type": "Rooftop" }, "geometry": { "type": "Point", "coordinates": [ -76.952121520391799, 38.905055550273502 ] } },
{ "type": "Feature", "properties": { "site_name": "Paradise R11S", "ward": "Ward 7", "capacity_kw": 71.76, "households_served": 21, "installation_type": "Rooftop" }, "geometry": { "type": "Point", "coordinates": [ -76.951843940145693, 38.9056852996369 ] } },
{ "type": "Feature", "properties": { "site_name": "Paradise R10S", "ward": "Ward 7", "capacity_kw": 61.62, "households_served": 18, "installation_type": "Rooftop" }, "geometry": { "type": "Point", "coordinates": [ -76.951959459861101, 38.906029909952402 ] } },
{ "type": "Feature", "properties": { "site_name": "Paradise R9S", "ward": "Ward 7", "capacity_kw": 74.1, "households_served": 21, "installation_type": "Rooftop" }, "geometry": { "type": "Point", "coordinates": [ -76.9525215199521, 38.906523709701503 ] } },
{ "type": "Feature", "properties": { "site_name": "Paradise R8S", "ward": "Ward 7", "capacity_kw": 85.8, "households_served": 25, "installation_type": "Rooftop" }, "geometry": { "type": "Point", "coordinates": [ -76.952132590146903, 38.906945230038403 ] } },
{ "type": "Feature", "properties": { "site_name": "Paradise R7S", "ward": "Ward 7", "capacity_kw": 92.43, "households_served": 26, "installation_type": "Rooftop" }, "geometry": { "type": "Point", "coordinates": [ -76.951295170235895, 38.907011010050098 ] } },
{ "type": "Feature", "properties": { "site_name": "Paradise R6S", "ward": "Ward 7", "capacity_kw": 67.47, "households_served": 19, "installation_type": "Rooftop" }, "geometry": { "type": "Point", "coordinates": [ -76.950493459705299, 38.907122019665501 ] } },
{ "type": "Feature", "properties": { "site_name": "Paradise R5S", "ward": "Ward 7", "capacity_kw": 70.2, "households_served": 20, "installation_type": "Rooftop" }, "geometry": { "type": "Point", "coordinates": [ -76.950614110053095, 38.906544359934301 ] } },
{ "type": "Feature", "properties": { "site_name": "Paradise R4S", "ward": "Ward 7", "capacity_kw": 68.25, "households_served": 20, "installation_type": "Rooftop" }, "geometry": { "type": "Point", "coordinates": [ -76.950494150384699, 38.906123259580802 ] } },
{ "type": "Feature", "properties": { "site_name": "Paradise R3S", "ward": "Ward 7", "capacity_kw": 93.6, "households_served": 27, "installation_type": "Rooftop" }, "geometry": { "type": "Point", "coordinates": [ -76.950850610167507, 38.905820640410298 ] } },
{ "type": "Feature", "properties": { "site_name": "Paradise R2S", "ward": "Ward 7", "capacity_kw": 93.6, "households_served": 27, "installation_type": "Rooftop" }, "geometry": { "type": "Point", "coordinates": [ -76.950222990398601, 38.905280950055797 ] } },
{ "type": "Feature", "properties": { "site_name": "Paradise R1S", "ward": "Ward 7", "capacity_kw": 72.15, "households_served": 21, "installation_type": "Rooftop" }, "geometry": { "type": "Point", "coordinates": [ -76.949483940131699, 38.904852559797902 ] } },
{ "type": "Feature", "properties": { "site_name": "Paradise R13N", "ward": "Ward 7", "capacity_kw": 66.3, "households_served": 19, "installation_type": "Rooftop" }, "geometry": { "type": "Point", "coordinates": [ -76.951711850421503, 38.904771979643201 ] } },
{ "type": "Feature", "properties": { "site_name": "Paradise R14N", "ward": "Ward 7", "capacity_kw": 73.32, "households_served": 21, "installation_type": "Rooftop" }, "geometry": { "type": "Point", "coordinates": [ -76.951146899909503, 38.904659589568404 ] } },
{ "type": "Feature", "properties": { "site_name": "Paradise R15N", "ward": "Ward 7", "capacity_kw": 62.4, "households_served": 18, "installation_type": "Rooftop" }, "geometry": { "type": "Point", "coordinates": [ -76.950510320195093, 38.904579329572499 ] } },
{ "type": "Feature", "properties": { "site_name": "Paradise R1N", "ward": "Ward 7", "capacity_kw": 57.72, "households_served": 16, "installation_type": "Rooftop" }, "geometry": { "type": "Point", "coordinates": [ -76.949281599865898, 38.905354150373803 ] } },
{ "type": "Feature", "properties": { "site_name": "Paradise R2N", "ward": "Ward 7", "capacity_kw": 93.6, "households_served": 27, "installation_type": "Rooftop" }, "geometry": { "type": "Point", "coordinates": [ -76.949826449630905, 38.905531309622297 ] } },
{ "type": "Feature", "properties": { "site_name": "Paradise R3N", "ward": "Ward 7", "capacity_kw": 93.6, "households_served": 27, "installation_type": "Rooftop" }, "geometry": { "type": "Point", "coordinates": [ -76.949883990054005, 38.906015080131901 ] } },
{ "type": "Feature", "properties": { "site_name": "Paradise R4N", "ward": "Ward 7", "capacity_kw": 65.91, "households_served": 19, "installation_type": "Rooftop" }, "geometry": { "type": "Point", "coordinates": [ -76.949972870051894, 38.906349240325198 ] } },
{ "type": "Feature", "properties": { "site_name": "Paradise R5N", "ward": "Ward 7", "capacity_kw": 60.45, "households_served": 17, "installation_type": "Rooftop" }, "geometry": { "type": "Point", "coordinates": [ -76.950101670056, 38.906821149676396 ] } },
{ "type": "Feature", "properties": { "site_name": "Paradise R6N", "ward": "Ward 7", "capacity_kw": 72.54, "households_served": 21, "installation_type": "Rooftop" }, "geometry": { "type": "Point", "coordinates": [ -76.950680569952297, 38.906958500434499 ] } },
{ "type": "Feature", "properties": { "site_name": "Hughes Memorial", "ward": "Ward 7", "capacity_kw": 92.52, "households_served": 26, "installation_type": "Rooftop" }, "geometry": { "type": "Point", "coordinates": [ -76.925776919769007, 38.890534889673397 ] } },
{ "type": "Feature", "properties": { "site_name": "St. James Co-op 1", "ward": "Ward 6", "capacity_kw": 175.56, "households_served": 50, "installation_type": "Rooftop" }, "geometry": { "type": "Point", "coordinates": [ -77.014810959757895, 38.872794520350901 ] } },
{ "type": "Feature", "properties": { "site_name": "Firehouse 27", "ward": "Ward 7", "capacity_kw": 82.68, "households_served": 24, "installation_type": "Rooftop" }, "geometry": { "type": "Point", "coordinates": [ -76.940987110366805, 38.903288359969899 ] } },
{ "type": "Feature", "properties": { "site_name": "Harrison Condos", "ward": "Ward 3", "capacity_kw": 90.48, "households_served": 26, "installation_type": "Rooftop" }, "geometry": { "type": "Point", "coordinates": [ -77.083630230350806, 38.957211320446099 ] } },
{ "type": "Feature", "properties": { "site_name": "Rhode Island Row 1", "ward": "Ward 5", "capacity_kw": 425.22, "households_served": 121, "installation_type": "Rooftop" }, "geometry": { "type": "Point", "coordinates": [ -76.995439990063502, 38.920417550030002 ] } },
{ "type": "Feature", "properties": { "site_name": "Rhode Island Row 2", "ward": "Ward 5", "capacity_kw": 590.9, "households_served": 169, "installation_type": "Rooftop" }, "geometry": { "type": "Point", "coordinates": [ -76.994814130267898, 38.9210309901881 ] } },
{ "type": "Feature", "properties": { "site_name": "EQ Flats", "ward": "Ward 8", "capacity_kw": 55.2, "households_served": 16, "installation_type": "Rooftop" }, "geometry": { "type": "Point", "coordinates": [ -76.990946639875503, 38.843064250115098 ] } },
{ "type": "Feature", "properties": { "site_name": "Fairfax Village 2", "ward": "Ward 7", "capacity_kw": 57.6, "households_served": 16, "installation_type": "Rooftop" }, "geometry": { "type": "Point", "coordinates": [ -76.949014410386695, 38.862689420380498 ] } },
{ "type": "Feature", "properties": { "site_name": "Fairfax Vilage 3-1", "ward": "Ward 7", "capacity_kw": 43.2, "households_served": 12, "installation_type": "Rooftop" }, "geometry": { "type": "Point", "coordinates": [ -76.9495838602069, 38.862976850001701 ] } },
{ "type": "Feature", "properties": { "site_name": "Fairfax Village 3-2", "ward": "Ward 7", "capacity_kw": 55.2, "households_served": 16, "installation_type": "Rooftop" }, "geometry": { "type": "Point", "coordinates": [ -76.949698289944095, 38.862149929675603 ] } },
{ "type": "Feature", "properties": { "site_name": "Fairfax Village 5-1", "ward": "Ward 7", "capacity_kw": 43.2, "households_served": 12, "installation_type": "Rooftop" }, "geometry": { "type": "Point", "coordinates": [ -76.951588520094106, 38.862774019605403 ] } },
{ "type": "Feature", "properties": { "site_name": "Fairfax Village 5-2", "ward": "Ward 7", "capacity_kw": 105.6, "households_served": 30, "installation_type": "Rooftop" }, "geometry": { "type": "Point", "coordinates": [ -76.951010860362899, 38.862517579722599 ] } },
{ "type": "Feature", "properties": { "site_name": "Fairfax Village 5-4", "ward": "Ward 7", "capacity_kw": 40.8, "households_served": 12, "installation_type": "Rooftop" }, "geometry": { "type": "Point", "coordinates": [ -76.949820120202304, 38.863394589588701 ] } },
{ "type": "Feature", "properties": { "site_name": "Fairfax Village 5-6", "ward": "Ward 7", "capacity_kw": 117.6, "households_served": 34, "installation_type": "Rooftop" }, "geometry": { "type": "Point", "coordinates": [ -76.950109270226605, 38.862983930364102 ] } },
{ "type": "Feature", "properties": { "site_name": "Fairfax Village 7-1", "ward": "Ward 7", "capacity_kw": 79.2, "households_served": 23, "installation_type": "Rooftop" }, "geometry": { "type": "Point", "coordinates": [ -76.951890730073103, 38.864674740346999 ] } },
{ "type": "Feature", "properties": { "site_name": "Fairfax Village 7-2", "ward": "Ward 7", "capacity_kw": 38.4, "households_served": 11, "installation_type": "Rooftop" }, "geometry": { "type": "Point", "coordinates": [ -76.950708559552396, 38.864459400381101 ] } },
{ "type": "Feature", "properties": { "site_name": "Hunter Place 1", "ward": "Ward 8", "capacity_kw": 40.0, "households_served": 11, "installation_type": "Rooftop" }, "geometry": { "type": "Point", "coordinates": [ -76.984188980237207, 38.8599016398488 ] } },
{ "type": "Feature", "properties": { "site_name": "Hunter Place 2", "ward": "Ward 8", "capacity_kw": 32.0, "households_served": 9, "installation_type": "Rooftop" }, "geometry": { "type": "Point", "coordinates": [ -76.984565789879198, 38.859688380014802 ] } },
{ "type": "Feature", "properties": { "site_name": "Fairfax Commons 1", "ward": "Ward 7", "capacity_kw": 228.0, "households_served": 65, "installation_type": "Rooftop" }, "geometry": { "type": "Point", "coordinates": [ -76.9512312895923, 38.862162229703202 ] } },
{ "type": "Feature", "properties": { "site_name": "Abrams Hall 1", "ward": "Ward 4", "capacity_kw": 468.0, "households_served": 134, "installation_type": "Rooftop" }, "geometry": { "type": "Point", "coordinates": [ -77.030394639700802, 38.973811639895303 ] } },
{ "type": "Feature", "properties": { "site_name": "Ridgecrest 1", "ward": "Ward 8", "capacity_kw": 1176.8, "households_served": 336, "installation_type": "Rooftop" }, "geometry": { "type": "Point", "coordinates": [ -76.976145530191999, 38.847222080334802 ] } },
{ "type": "Feature", "properties": { "site_name": "Northbrook I", "ward": "Ward 1", "capacity_kw": 92.52, "households_served": 26, "installation_type": "Rooftop" }, "geometry": { "type": "Point", "coordinates": [ -77.037057269777193, 38.933740099625901 ] } },
{ "type": "Feature", "properties": { "site_name": "Crescent Park Village 1", "ward": "Ward 8", "capacity_kw": 76.95, "households_served": 22, "installation_type": "Rooftop" }, "geometry": { "type": "Point", "coordinates": [ -77.007376669997299, 38.827607749598002 ] } },
{ "type": "Feature", "properties": { "site_name": "Crescent Park Village 2", "ward": "Ward 8", "capacity_kw": 64.8, "households_served": 19, "installation_type": "Rooftop" }, "geometry": { "type": "Point", "coordinates": [ -77.007249780153202, 38.826753659853601 ] } },
{ "type": "Feature", "properties": { "site_name": "Crescent Park Village 3", "ward": "Ward 8", "capacity_kw": 54.9, "households_served": 16, "installation_type": "Rooftop" }, "geometry": { "type": "Point", "coordinates": [ -77.006754369718394, 38.825781140187502 ] } },
{ "type": "Feature", "properties": { "site_name": "Crescent Park Village 4", "ward": "Ward 8", "capacity_kw": 54.9, "households_served": 16, "installation_type": "Rooftop" }, "geometry": { "type": "Point", "coordinates": [ -77.005890310089697, 38.825781189650201 ] } },
{ "type": "Feature", "properties": { "site_name": "Crescent Park Village 5", "ward": "Ward 8", "capacity_kw": 44.55, "households_served": 13, "installation_type": "Rooftop" }, "geometry": { "type": "Point", "coordinates": [ -77.005798109794895, 38.826254769941698 ] } },
{ "type": "Feature", "properties": { "site_name": "Crescent Park Village 6", "ward": "Ward 8", "capacity_kw": 76.95, "households_served": 22, "installation_type": "Rooftop" }, "geometry": { "type": "Point", "coordinates": [ -77.006027150032907, 38.827451079603698 ] } },
{ "type": "Feature", "properties": { "site_name": "Washington Tennis", "ward": "Ward 7", "capacity_kw": 743.4, "households_served": 212, "installation_type": "Rooftop" }, "geometry": { "type": "Point", "coordinates": [ -76.947179609950993, 38.888549579599498 ] } },
{ "type": "Feature", "properties": { "site_name": "Takoma Park SDA", "ward": "Ward 4", "capacity_kw": 279.705, "households_served": 80, "installation_type": "Rooftop" }, "geometry": { "type": "Point", "coordinates": [ -77.012754319955903, 38.973458080426099 ] } },
{ "type": "Feature", "properties": { "site_name": "1320 Nicholson", "ward": "Ward 4", "capacity_kw": 20.4, "households_served": 6, "installation_type": "Rooftop" }, "geometry": { "type": "Point", "coordinates": [ -77.031223630266297, 38.960002409583602 ] } },
{ "type": "Feature", "properties": { "site_name": "Celestial Church", "ward": "Ward 4", "capacity_kw": 183.6, "households_served": 52, "installation_type": "Rooftop" }, "geometry": { "type": "Point", "coordinates": [ -77.010976530242701, 38.965707269774697 ] } },
{ "type": "Feature", "properties": { "site_name": "Stonebridge Investors", "ward": "Ward 4", "capacity_kw": 166.82, "households_served": 48, "installation_type": "Rooftop" }, "geometry": { "type": "Point", "coordinates": [ -77.035369229706106, 38.963556759636802 ] } },
{ "type": "Feature", "properties": { "site_name": "Peter Mellen", "ward": "Ward 5", "capacity_kw": 231.8, "households_served": 66, "installation_type": "Rooftop" }, "geometry": { "type": "Point", "coordinates": [ -76.977972070354696, 38.914864720230703 ] } },
{ "type": "Feature", "properties": { "site_name": "Worthington Woods I", "ward": "Ward 8", "capacity_kw": 867.6, "households_served": 248, "installation_type": "Rooftop" }, "geometry": { "type": "Point", "coordinates": [ -77.0027514603116, 38.825869489585301 ] } },
{ "type": "Feature", "properties": { "site_name": "Worthington Woods II", "ward": "Ward 8", "capacity_kw": 623.7, "households_served": 178, "installation_type": "Rooftop" }, "geometry": { "type": "Point", "coordinates": [ -77.001159439956197, 38.825042630413101 ] } },
{ "type": "Feature", "properties": { "site_name": "Pepco - Benning Road", "ward": "Ward 7", "capacity_kw": 1157.0, "households_served": 331, "installation_type": "Rooftop" }, "geometry": { "type": "Point", "coordinates": [ -76.952137079562505, 38.896978479972901 ] } },
{ "type": "Feature", "properties": { "site_name": "Savannah Apartments 1", "ward": "Ward 8", "capacity_kw": 63.2, "households_served": 18, "installation_type": "Rooftop" }, "geometry": { "type": "Point", "coordinates": [ -76.987986919760502, 38.8439409596077 ] } },
{ "type": "Feature", "properties": { "site_name": "Savannah Apartments 2", "ward": "Ward 8", "capacity_kw": 73.6, "households_served": 21, "installation_type": "Rooftop" }, "geometry": { "type": "Point", "coordinates": [ -76.9878129899774, 38.843199629559301 ] } },
{ "type": "Feature", "properties": { "site_name": "Benning Park Apartments 1", "ward": "Ward 7", "capacity_kw": 115.2, "households_served": 33, "installation_type": "Rooftop" }, "geometry": { "type": "Point", "coordinates": [ -76.930725219892906, 38.880194769872801 ] } },
{ "type": "Feature", "properties": { "site_name": "Benning Park Apartments 2", "ward": "Ward 7", "capacity_kw": 508.8, "households_served": 145, "installation_type": "Rooftop" }, "geometry": { "type": "Point", "coordinates": [ -76.926408810418195, 38.880265040199497 ] } },
{ "type": "Feature", "properties": { "site_name": "Benning Park Apartments 3", "ward": "Ward 7", "capacity_kw": 76.8, "households_served": 22, "installation_type": "Rooftop" }, "geometry": { "type": "Point", "coordinates": [ -76.931877589579102, 38.880692530236203 ] } },
{ "type": "Feature", "properties": { "site_name": "Pannell House", "ward": "Ward 8", "capacity_kw": 42.0, "households_served": 12, "installation_type": "Rooftop" }, "geometry": { "type": "Point", "coordinates": [ -76.976935269846805, 38.873029929587602 ] } },
{ "type": "Feature", "properties": { "site_name": "Fairfax Village 1", "ward": "Ward 7", "capacity_kw": 297.18, "households_served": 85, "installation_type": "Rooftop" }, "geometry": { "type": "Point", "coordinates": [ -76.948498849742094, 38.8634157200595 ] } },
{ "type": "Feature", "properties": { "site_name": "Fairfax Village 6-1", "ward": "Ward 7", "capacity_kw": 89.25, "households_served": 26, "installation_type": "Rooftop" }, "geometry": { "type": "Point", "coordinates": [ -76.9517014902315, 38.8635558200451 ] } },
{ "type": "Feature", "properties": { "site_name": "Fairfax Village 6-2", "ward": "Ward 7", "capacity_kw": 94.35, "households_served": 27, "installation_type": "Rooftop" }, "geometry": { "type": "Point", "coordinates": [ -76.950749119875894, 38.864128539800298 ] } },
{ "type": "Feature", "properties": { "site_name": "Fairfax Village 8", "ward": "Ward 7", "capacity_kw": 129.0, "households_served": 37, "installation_type": "Rooftop" }, "geometry": { "type": "Point", "coordinates": [ -76.954039609740093, 38.8638817901126 ] } },
{ "type": "Feature", "properties": { "site_name": "Fairfax Village 5 Carport", "ward": "Ward 7", "capacity_kw": 66.78, "households_served": 19, "installation_type": "Carport" }, "geometry": { "type": "Point", "coordinates": [ -76.949820120202304, 38.863394589588701 ] } },
{ "type": "Feature", "properties": { "site_name": "Gateway Commons", "ward": "Ward 7", "capacity_kw": 100.62, "households_served": 29, "installation_type": "Rooftop" }, "geometry": { "type": "Point", "coordinates": [ -76.942997919818097, 38.891055519796403 ] } },
{ "type": "Feature", "properties": { "site_name": "EQ Flats Carport", "ward": "Ward 8", "capacity_kw": 30.0, "households_served": 9, "installation_type": "Carport" }, "geometry": { "type": "Point", "coordinates": [ -76.990946639875503, 38.843064250115098 ] } },
{ "type": "Feature", "properties": { "site_name": "Fairfax Commons Hill", "ward": "Ward 7", "capacity_kw": 157.4, "households_served": 45, "installation_type": "Rooftop" }, "geometry": { "type": "Point", "coordinates": [ -76.950848869979296, 38.861992530331101 ] } },
{ "type": "Feature", "properties": { "site_name": "Walter Washington Community Center", "ward": "Ward 8", "capacity_kw": 65.6, "households_served": 19, "installation_type": "Rooftop" }, "geometry": { "type": "Point", "coordinates": [ -76.989576830306405, 38.831013459703499 ] } },
{ "type": "Feature", "properties": { "site_name": "Bethune House", "ward": "Ward 7", "capacity_kw": 72.16, "households_served": 21, "installation_type": "Rooftop" }, "geometry": { "type": "Point", "coordinates": [ -76.942473089861195, 38.884654720139302 ] } },
{ "type": "Feature", "properties": { "site_name": "DC Water Brentwood Reservoir", "ward": "Ward 5", "capacity_kw": 1800.0, "households_served": 0, "installation_type": "Rooftop" }, "geometry": { "type": "Point", "coordinates": [ -76.993699110325593, 38.910923220130499 ] } },
{ "type": "Feature", "properties": { "site_name": "Sargent Memorial", "ward": "Ward 7", "capacity_kw": 256.0, "households_served": 73, "installation_type": "Rooftop" }, "geometry": null },
{ "type": "Feature", "properties": { "site_name": "Barac Properties", "ward": "Ward 2", "capacity_kw": 68.85, "households_served": 20, "installation_type": "Rooftop" }, "geometry": { "type": "Point", "coordinates": [ -77.033634000408796, 38.915957820097397 ] } },
{ "type": "Feature", "properties": { "site_name": "Benning and G", "ward": "Ward 7", "capacity_kw": 135.45, "households_served": 39, "installation_type": "Rooftop" }, "geometry": { "type": "Point", "coordinates": [ -76.932259709717798, 38.880871569966999 ] } },
{ "type": "Feature", "properties": { "site_name": "Edgewood Office", "ward": "Ward 5", "capacity_kw": 171.0, "households_served": 49, "installation_type": "Rooftop" }, "geometry": { "type": "Point", "coordinates": [ -76.995817109971597, 38.923672210004597 ] } },
{ "type": "Feature", "properties": { "site_name": "Hillwood Condos", "ward": "Ward 8", "capacity_kw": 142.2, "households_served": 41, "installation_type": "Rooftop" }, "geometry": { "type": "Point", "coordinates": [ -76.980900910448597, 38.854724580075299 ] } },
{ "type": "Feature", "properties": { "site_name": "Northbrook II", "ward": "Ward 1", "capacity_kw": 95.7, "households_served": 27, "installation_type": "Rooftop" }, "geometry": { "type": "Point", "coordinates": [ -77.036959009850406, 38.934208589754697 ] } },
{ "type": "Feature", "properties": { "site_name": "Occasions Catering", "ward": "Ward 5", "capacity_kw": 272.79, "households_served": 78, "installation_type": "Rooftop" }, "geometry": { "type": "Point", "coordinates": [ -76.9962423795821, 38.939530780321299 ] } },
{ "type": "Feature", "properties": { "site_name": "Park Place 2", "ward": "Ward 5", "capacity_kw": 278.55, "households_served": 80, "installation_type": "Rooftop" }, "geometry": { "type": "Point", "coordinates": [ -77.007541889846294, 38.9286208500722 ] } },
{ "type": "Feature", "properties": { "site_name": "Rockburne Apartments", "ward": "Ward 8", "capacity_kw": 1216.8, "households_served": 0, "installation_type": " " }, "geometry": { "type": "Point", "coordinates": [ -76.969458380100093, 38.851207300076901 ] } },
{ "type": "Feature", "properties": { "site_name": "The Ashton", "ward": "Ward 5", "capacity_kw": 92.7, "households_served": 26, "installation_type": "Rooftop" }, "geometry": { "type": "Point", "coordinates": [ -76.978391929643806, 38.929223279830602 ] } },
{ "type": "Feature", "properties": { "site_name": "Mount Dome", "ward": "Ward 7", "capacity_kw": 75.6, "households_served": 22, "installation_type": "Rooftop" }, "geometry": { "type": "Point", "coordinates": [ -76.958146139932396, 38.868663370318401 ] } },
{ "type": "Feature", "properties": { "site_name": "2650 Q St SE", "ward": "Ward 7", "capacity_kw": 33.82, "households_served": 10, "installation_type": "Rooftop" }, "geometry": { "type": "Point", "coordinates": [ -76.969325700420697, 38.870976149629698 ] } },
{ "type": "Feature", "properties": { "site_name": "Hampton East", "ward": "Ward 7", "capacity_kw": 246.6, "households_served": 70, "installation_type": "Rooftop" }, "geometry": { "type": "Point", "coordinates": [ -76.931850060431898, 38.883691860091297 ] } },
{ "type": "Feature", "properties": { "site_name": "House of Praise", "ward": "Ward 7", "capacity_kw": 532.4, "households_served": 152, "installation_type": "Rooftop/Canopy" }, "geometry": { "type": "Point", "coordinates": [ -76.927167920063397, 38.898823309648101 ] } },
{ "type": "Feature", "properties": { "site_name": "MC Dean", "ward": "Ward 5", "capacity_kw": 156.0, "households_served": 45, "installation_type": "Rooftop" }, "geometry": { "type": "Point", "coordinates": [ -76.967082939625897, 38.918551970297202 ] } },
{ "type": "Feature", "properties": { "site_name": "Burns Street", "ward": "Ward 7", "capacity_kw": 55.18, "households_served": 16, "installation_type": "Rooftop" }, "geometry": { "type": "Point", "coordinates": [ -76.9697128099982, 38.874690150030503 ] } },
{ "type": "Feature", "properties": { "site_name": "Alexander Gardens", "ward": "Ward 8", "capacity_kw": 126.0, "households_served": 36, "installation_type": "Rooftop" }, "geometry": { "type": "Point", "coordinates": [ -76.981467430277604, 38.8701278704049 ] } },
{ "type": "Feature", "properties": { "site_name": "Wylie Courts 1", "ward": "Ward 6", "capacity_kw": 105.3, "households_served": 30, "installation_type": "Rooftop" }, "geometry": { "type": "Point", "coordinates": [ -76.987757929884495, 38.900946549643599 ] } },
{ "type": "Feature", "properties": { "site_name": "Wylie Courts 2", "ward": "Ward 6", "capacity_kw": 101.25, "households_served": 29, "installation_type": " " }, "geometry": { "type": "Point", "coordinates": [ -76.987131249907193, 38.9009599000794 ] } },
{ "type": "Feature", "properties": { "site_name": "Second NW I", "ward": "Ward 2", "capacity_kw": 87.8, "households_served": 25, "installation_type": " " }, "geometry": { "type": "Point", "coordinates": [ -77.018255880304594, 38.907463760244397 ] } },
{ "type": "Feature", "properties": { "site_name": "Second NW II", "ward": "Ward 2", "capacity_kw": 106.2, "households_served": 30, "installation_type": "Rooftop" }, "geometry": { "type": "Point", "coordinates": [ -77.016947489934694, 38.907795190096003 ] } },
{ "type": "Feature", "properties": { "site_name": "Fairfax Village 9-1", "ward": "Ward 7", "capacity_kw": 138.99, "households_served": 40, "installation_type": "Rooftop" }, "geometry": { "type": "Point", "coordinates": [ -76.952709290301499, 38.863627219920303 ] } },
{ "type": "Feature", "properties": { "site_name": "Fairfax Village 9-2", "ward": "Ward 7", "capacity_kw": 164.82, "households_served": 47, "installation_type": "Rooftop" }, "geometry": { "type": "Point", "coordinates": [ -76.952714789655801, 38.864383750309898 ] } },
{ "type": "Feature", "properties": { "site_name": "Colin's House", "ward": "Ward 4", "capacity_kw": 21.23, "households_served": 6, "installation_type": "Rooftop" }, "geometry": null },
{ "type": "Feature", "properties": { "site_name": "5th and Jefferson", "ward": "Ward 4", "capacity_kw": 67.94, "households_served": 19, "installation_type": "Rooftop" }, "geometry": { "type": "Point", "coordinates": [ -77.020267609762399, 38.955606970385404 ] } },
{ "type": "Feature", "properties": { "site_name": "Good Hope Road", "ward": "Ward 8", "capacity_kw": 36.12, "households_served": 10, "installation_type": "Rooftop" }, "geometry": { "type": "Point", "coordinates": [ -76.978455380411404, 38.8650285902972 ] } },
{ "type": "Feature", "properties": { "site_name": "Maplewood Apts 1", "ward": "Ward 8", "capacity_kw": 105.12, "households_served": 30, "installation_type": "Rooftop" }, "geometry": { "type": "Point", "coordinates": [ -76.972772770347007, 38.854552170146597 ] } },
{ "type": "Feature", "properties": { "site_name": "Maplewood Apts 2", "ward": "Ward 8", "capacity_kw": 134.4, "households_served": 38, "installation_type": "Rooftop" }, "geometry": { "type": "Point", "coordinates": [ -76.973030570004795, 38.854334830088398 ] } },
{ "type": "Feature", "properties": { "site_name": "Maplewood Apts 4", "ward": "Ward 8", "capacity_kw": 325.44, "households_served": 93, "installation_type": "Rooftop" }, "geometry": { "type": "Point", "coordinates": [ -76.971974839667098, 38.855111279562003 ] } },
{ "type": "Feature", "properties": { "site_name": "Highland Terrace 1", "ward": "Ward 8", "capacity_kw": 146.88, "households_served": 42, "installation_type": "Rooftop" }, "geometry": { "type": "Point", "coordinates": [ -76.993012010295999, 38.8311424197869 ] } },
{ "type": "Feature", "properties": { "site_name": "Highland Terrace 2", "ward": "Ward 8", "capacity_kw": 263.52, "households_served": 75, "installation_type": "Rooftop" }, "geometry": { "type": "Point", "coordinates": [ -76.992208529899699, 38.8315904503391 ] } },
{ "type": "Feature", "properties": { "site_name": "Highland Terrace 4", "ward": "Ward 8", "capacity_kw": 159.84, "households_served": 46, "installation_type": "Rooftop" }, "geometry": { "type": "Point", "coordinates": [ -76.9915215899494, 38.832133530238302 ] } },
{ "type": "Feature", "properties": { "site_name": "Living Word", "ward": "Ward 8", "capacity_kw": 33.21, "households_served": 9, "installation_type": "Rooftop" }, "geometry": { "type": "Point", "coordinates": [ -77.012611659600395, 38.829819079986599 ] } },
{ "type": "Feature", "properties": { "site_name": "140 Michigan Ave NE", "ward": "Ward 5", "capacity_kw": 273.84, "households_served": 78, "installation_type": "Rooftop" }, "geometry": { "type": "Point", "coordinates": [ -77.005560759821094, 38.9283444002739 ] } },
{ "type": "Feature", "properties": { "site_name": "144 Michigan Ave NE", "ward": "Ward 5", "capacity_kw": 274.68, "households_served": 78, "installation_type": "Rooftop" }, "geometry": { "type": "Point", "coordinates": [ -77.006013629625301, 38.929492220289802 ] } },
{ "type": "Feature", "properties": { "site_name": "116 Michigan Ave NE", "ward": "Ward 5", "capacity_kw": 182.28, "households_served": 52, "installation_type": "Rooftop" }, "geometry": { "type": "Point", "coordinates": [ -77.007258740098706, 38.929626460293001 ] } },
{ "type": "Feature", "properties": { "site_name": "108 Michigan Ave NE", "ward": "Ward 5", "capacity_kw": 263.04, "households_served": 75, "installation_type": "Rooftop" }, "geometry": { "type": "Point", "coordinates": [ -77.006462990274798, 38.928599709708898 ] } },
{ "type": "Feature", "properties": { "site_name": "4905 Nash St NE", "ward": "Ward 7", "capacity_kw": 34.56, "households_served": 10, "installation_type": "Rooftop" }, "geometry": { "type": "Point", "coordinates": [ -76.931151629843797, 38.906961329701602 ] } },
{ "type": "Feature", "properties": { "site_name": "5105 F St SE", "ward": "Ward 7", "capacity_kw": 69.12, "households_served": 20, "installation_type": "Rooftop" }, "geometry": { "type": "Point", "coordinates": [ -76.928817089636993, 38.881403539641703 ] } },
{ "type": "Feature", "properties": { "site_name": "5047 D St SE", "ward": "Ward 7", "capacity_kw": 60.0, "households_served": 17, "installation_type": "Rooftop" }, "geometry": { "type": "Point", "coordinates": [ -76.929318670320399, 38.883605789575597 ] } },
{ "type": "Feature", "properties": { "site_name": "5325 Bass Pl SE", "ward": "Ward 7", "capacity_kw": 33.12, "households_served": 9, "installation_type": "Rooftop" }, "geometry": { "type": "Point", "coordinates": [ -76.925068430263806, 38.885114100135603 ] } },
{ "type": "Feature", "properties": { "site_name": "5320 8th St NW", "ward": "Ward 4", "capacity_kw": 60.0, "households_served": 17, "installation_type": " " }, "geometry": { "type": "Point", "coordinates": [ -77.0243184296518, 38.954928260131197 ] } },
{ "type": "Feature", "properties": { "site_name": "1850-1854 Kendall St NE", "ward": "Ward 5", "capacity_kw": 60.0, "households_served": 17, "installation_type": " " }, "geometry": null },
{ "type": "Feature", "properties": { "site_name": "101 41st St. NE", "ward": "Ward 7", "capacity_kw": 21.6, "households_served": 6, "installation_type": " " }, "geometry": { "type": "Point", "coordinates": [ -76.944318710040406, 38.891435950108999 ] } },
{ "type": "Feature", "properties": { "site_name": "4480 C St SE", "ward": "Ward 7", "capacity_kw": 28.8, "households_served": 8, "installation_type": " " }, "geometry": { "type": "Point", "coordinates": [ -76.9365705595836, 38.886705300309401 ] } },
{ "type": "Feature", "properties": { "site_name": "5012 Bass Pl SE", "ward": "Ward 7", "capacity_kw": 18.0, "households_served": 5, "installation_type": " " }, "geometry": { "type": "Point", "coordinates": [ -76.929630789929007, 38.886049299735397 ] } },
{ "type": "Feature", "properties": { "site_name": "1827-1829 Good Hope Rd SE", "ward": "Ward 8", "capacity_kw": 26.4, "households_served": 8, "installation_type": " " }, "geometry": null },
{ "type": "Feature", "properties": { "site_name": "1644 & 1650-56 W St. SE", "ward": "Ward 8", "capacity_kw": 72.0, "households_served": 21, "installation_type": " " }, "geometry": null },
{ "type": "Feature", "properties": { "site_name": "4010 9th St SE", "ward": "Ward 8", "capacity_kw": 21.6, "households_served": 6, "installation_type": " " }, "geometry": { "type": "Point", "coordinates": [ -76.990379639808495, 38.832246219787301 ] } },
{ "type": "Feature", "properties": { "site_name": "4301-4313 Wheeler Rd SE", "ward": "Ward 8", "capacity_kw": 43.2, "households_served": 12, "installation_type": " " }, "geometry": null },
{ "type": "Feature", "properties": { "site_name": "2840 Langston Pl SE", "ward": "Ward 8", "capacity_kw": 21.6, "households_served": 6, "installation_type": " " }, "geometry": { "type": "Point", "coordinates": [ -76.972726059560003, 38.855596479993601 ] } },
{ "type": "Feature", "properties": { "site_name": "2920 Langston Pl SE", "ward": "Ward 8", "capacity_kw": 21.6, "households_served": 6, "installation_type": " " }, "geometry": { "type": "Point", "coordinates": [ -76.973849349667702, 38.854673030036302 ] } },
{ "type": "Feature", "properties": { "site_name": "2844 Langston Pl SE", "ward": "Ward 8", "capacity_kw": 18.0, "households_served": 5, "installation_type": " " }, "geometry": { "type": "Point", "coordinates": [ -76.972984510326896, 38.855493030079302 ] } },
{ "type": "Feature", "properties": { "site_name": "2850 Langston Pl SE", "ward": "Ward 8", "capacity_kw": 21.6, "households_served": 6, "installation_type": " " }, "geometry": { "type": "Point", "coordinates": [ -76.973079070442694, 38.855269580027098 ] } },
{ "type": "Feature", "properties": { "site_name": "2908 Langston Pl SE", "ward": "Ward 8", "capacity_kw": 20.4, "households_served": 6, "installation_type": " " }, "geometry": { "type": "Point", "coordinates": [ -76.973453049918305, 38.8549290301507 ] } },
{ "type": "Feature", "properties": { "site_name": "2912 Langston Pl SE", "ward": "Ward 8", "capacity_kw": 18.0, "households_served": 5, "installation_type": " " }, "geometry": { "type": "Point", "coordinates": [ -76.973588930284805, 38.854791319663697 ] } },
{ "type": "Feature", "properties": { "site_name": "4400 Hunt Pl NE", "ward": "Ward 7", "capacity_kw": 18.0, "households_served": 5, "installation_type": " " }, "geometry": { "type": "Point", "coordinates": [ -76.938534769763706, 38.9008142998401 ] } },
{ "type": "Feature", "properties": { "site_name": "Edens - 1323 4th", "ward": "Ward 5", "capacity_kw": 80.76, "households_served": 23, "installation_type": " " }, "geometry": { "type": "Point", "coordinates": [ -76.998449139616099, 38.909556550094699 ] } },
{ "type": "Feature", "properties": { "site_name": "McMillan Condos", "ward": "Ward 1", "capacity_kw": 41.04, "households_served": 12, "installation_type": " " }, "geometry": { "type": "Point", "coordinates": [ -77.018828869856407, 38.929210760368299 ] } },
{ "type": "Feature", "properties": { "site_name": " ", "ward": "Other/Unspecified", "capacity_kw": 0.0, "households_served": 0, "installation_type": " " }, "geometry": null },
{ "type": "Feature", "properties": { "site_name": " ", "ward": "Other/Unspecified", "capacity_kw": 0.0, "households_served": 0, "installation_type": " " }, "geometry": null },
{ "type": "Feature", "properties": { "site_name": " ", "ward": "Other/Unspecified", "capacity_kw": 0.0, "households_served": 0, "installation_type": " " }, "geometry": null },
{ "type": "Feature", "properties": { "site_name": " ", "ward": "Other/Unspecified", "capacity_kw": 0.0, "households_served": 0, "installation_type": " " }, "geometry": null },
{ "type": "Feature", "properties": { "site_name": " ", "ward": "Other/Unspecified", "capacity_kw": 0.0, "households_served": 0, "installation_type": " " }, "geometry": null }
]
}
